<?xml version="1.0" encoding="UTF-8"?>
<gpx version="1.1" creator="Apex" xmlns="http://www.topografix.com/GPX/1/1">
  <metadata>
    <name>Boyana to Kopitoto</name>
  </metadata>
  <trk>
    <name>Boyana to Kopitoto</name>
    <trkseg>
      <trkpt lat="42.644601" lon="23.266544"><ele>771.7</ele></trkpt>
      <trkpt lat="42.644547" lon="23.266538"><ele>777.1</ele></trkpt>
      <trkpt lat="42.644425" lon="23.266593"><ele>780.0</ele></trkpt>
      <trkpt lat="42.644597" lon="23.266862"><ele>773.0</ele></trkpt>
      <trkpt lat="42.645026" lon="23.267339"><ele>766.0</ele></trkpt>
      <trkpt lat="42.645326" lon="23.267505"><ele>760.5</ele></trkpt>
      <trkpt lat="42.645552" lon="23.267572"><ele>758.0</ele></trkpt>
      <trkpt lat="42.645788" lon="23.267542"><ele>758.0</ele></trkpt>
      <trkpt lat="42.646401" lon="23.267284"><ele>761.0</ele></trkpt>
      <trkpt lat="42.646591" lon="23.267248"><ele>761.0</ele></trkpt>
      <trkpt lat="42.646983" lon="23.267129"><ele>755.1</ele></trkpt>
      <trkpt lat="42.647096" lon="23.267056"><ele>754.9</ele></trkpt>
      <trkpt lat="42.647200" lon="23.266941"><ele>754.0</ele></trkpt>
      <trkpt lat="42.647356" lon="23.266712"><ele>754.0</ele></trkpt>
      <trkpt lat="42.647611" lon="23.266340"><ele>744.7</ele></trkpt>
      <trkpt lat="42.647651" lon="23.266202"><ele>743.6</ele></trkpt>
      <trkpt lat="42.647651" lon="23.266135"><ele>741.0</ele></trkpt>
      <trkpt lat="42.647650" lon="23.266049"><ele>741.0</ele></trkpt>
      <trkpt lat="42.647664" lon="23.265937"><ele>741.0</ele></trkpt>
      <trkpt lat="42.647710" lon="23.265653"><ele>742.0</ele></trkpt>
      <trkpt lat="42.647732" lon="23.265564"><ele>742.0</ele></trkpt>
      <trkpt lat="42.647874" lon="23.265111"><ele>742.8</ele></trkpt>
      <trkpt lat="42.648149" lon="23.264509"><ele>745.0</ele></trkpt>
      <trkpt lat="42.648804" lon="23.263050"><ele>734.0</ele></trkpt>
      <trkpt lat="42.648816" lon="23.263019"><ele>734.0</ele></trkpt>
      <trkpt lat="42.648853" lon="23.262598"><ele>736.1</ele></trkpt>
      <trkpt lat="42.648879" lon="23.262459"><ele>736.6</ele></trkpt>
      <trkpt lat="42.648924" lon="23.262296"><ele>737.0</ele></trkpt>
      <trkpt lat="42.649047" lon="23.261958"><ele>739.0</ele></trkpt>
      <trkpt lat="42.649203" lon="23.261656"><ele>738.3</ele></trkpt>
      <trkpt lat="42.649569" lon="23.261107"><ele>738.2</ele></trkpt>
      <trkpt lat="42.649643" lon="23.261020"><ele>738.2</ele></trkpt>
      <trkpt lat="42.649770" lon="23.260913"><ele>738.0</ele></trkpt>
      <trkpt lat="42.649617" lon="23.260043"><ele>741.0</ele></trkpt>
      <trkpt lat="42.649509" lon="23.259431"><ele>744.0</ele></trkpt>
      <trkpt lat="42.649497" lon="23.259364"><ele>744.0</ele></trkpt>
      <trkpt lat="42.649321" lon="23.258285"><ele>748.0</ele></trkpt>
      <trkpt lat="42.649207" lon="23.257585"><ele>748.0</ele></trkpt>
      <trkpt lat="42.649061" lon="23.256512"><ele>751.0</ele></trkpt>
      <trkpt lat="42.649024" lon="23.256142"><ele>754.0</ele></trkpt>
      <trkpt lat="42.648985" lon="23.255372"><ele>758.0</ele></trkpt>
      <trkpt lat="42.648978" lon="23.255210"><ele>758.0</ele></trkpt>
      <trkpt lat="42.648934" lon="23.254218"><ele>768.0</ele></trkpt>
      <trkpt lat="42.648918" lon="23.253854"><ele>778.0</ele></trkpt>
      <trkpt lat="42.648881" lon="23.252942"><ele>782.9</ele></trkpt>
      <trkpt lat="42.648898" lon="23.252559"><ele>782.9</ele></trkpt>
      <trkpt lat="42.648966" lon="23.252133"><ele>787.0</ele></trkpt>
      <trkpt lat="42.649016" lon="23.251930"><ele>787.0</ele></trkpt>
      <trkpt lat="42.649081" lon="23.251758"><ele>787.0</ele></trkpt>
      <trkpt lat="42.649210" lon="23.251393"><ele>781.0</ele></trkpt>
      <trkpt lat="42.649795" lon="23.249725"><ele>799.0</ele></trkpt>
      <trkpt lat="42.649492" lon="23.249342"><ele>799.0</ele></trkpt>
      <trkpt lat="42.649457" lon="23.249297"><ele>799.0</ele></trkpt>
      <trkpt lat="42.649258" lon="23.249104"><ele>806.0</ele></trkpt>
      <trkpt lat="42.648875" lon="23.248907"><ele>808.2</ele></trkpt>
      <trkpt lat="42.648817" lon="23.248900"><ele>819.0</ele></trkpt>
      <trkpt lat="42.648765" lon="23.248847"><ele>819.0</ele></trkpt>
      <trkpt lat="42.648648" lon="23.248814"><ele>819.0</ele></trkpt>
      <trkpt lat="42.648595" lon="23.248773"><ele>819.0</ele></trkpt>
      <trkpt lat="42.648526" lon="23.248629"><ele>819.0</ele></trkpt>
      <trkpt lat="42.648501" lon="23.248537"><ele>819.0</ele></trkpt>
      <trkpt lat="42.648481" lon="23.248384"><ele>819.0</ele></trkpt>
      <trkpt lat="42.648446" lon="23.248198"><ele>826.6</ele></trkpt>
      <trkpt lat="42.648037" lon="23.247104"><ele>835.9</ele></trkpt>
      <trkpt lat="42.647794" lon="23.246189"><ele>845.7</ele></trkpt>
      <trkpt lat="42.647740" lon="23.246066"><ele>847.0</ele></trkpt>
      <trkpt lat="42.647566" lon="23.246591"><ele>847.0</ele></trkpt>
      <trkpt lat="42.647495" lon="23.246584"><ele>859.0</ele></trkpt>
      <trkpt lat="42.647425" lon="23.246602"><ele>858.2</ele></trkpt>
      <trkpt lat="42.647105" lon="23.246767"><ele>861.0</ele></trkpt>
      <trkpt lat="42.647068" lon="23.246684"><ele>862.0</ele></trkpt>
      <trkpt lat="42.647017" lon="23.246625"><ele>862.3</ele></trkpt>
      <trkpt lat="42.646888" lon="23.246517"><ele>863.0</ele></trkpt>
      <trkpt lat="42.646720" lon="23.246394"><ele>875.5</ele></trkpt>
      <trkpt lat="42.646584" lon="23.246373"><ele>878.6</ele></trkpt>
      <trkpt lat="42.646025" lon="23.246206"><ele>888.0</ele></trkpt>
      <trkpt lat="42.645966" lon="23.245120"><ele>883.0</ele></trkpt>
      <trkpt lat="42.645950" lon="23.244704"><ele>886.0</ele></trkpt>
      <trkpt lat="42.645813" lon="23.242559"><ele>911.5</ele></trkpt>
      <trkpt lat="42.645765" lon="23.242341"><ele>912.4</ele></trkpt>
      <trkpt lat="42.645691" lon="23.242113"><ele>913.2</ele></trkpt>
      <trkpt lat="42.645605" lon="23.241935"><ele>917.0</ele></trkpt>
      <trkpt lat="42.645444" lon="23.241712"><ele>920.2</ele></trkpt>
      <trkpt lat="42.645070" lon="23.241270"><ele>920.0</ele></trkpt>
      <trkpt lat="42.644825" lon="23.240935"><ele>922.0</ele></trkpt>
      <trkpt lat="42.644720" lon="23.240663"><ele>922.1</ele></trkpt>
      <trkpt lat="42.644684" lon="23.240431"><ele>923.0</ele></trkpt>
      <trkpt lat="42.644715" lon="23.239813"><ele>935.0</ele></trkpt>
      <trkpt lat="42.644737" lon="23.239578"><ele>936.3</ele></trkpt>
      <trkpt lat="42.644733" lon="23.239286"><ele>936.1</ele></trkpt>
      <trkpt lat="42.644703" lon="23.238935"><ele>936.7</ele></trkpt>
      <trkpt lat="42.644664" lon="23.238737"><ele>937.0</ele></trkpt>
      <trkpt lat="42.644533" lon="23.238297"><ele>937.4</ele></trkpt>
      <trkpt lat="42.644199" lon="23.237383"><ele>938.5</ele></trkpt>
      <trkpt lat="42.644053" lon="23.236853"><ele>945.1</ele></trkpt>
      <trkpt lat="42.643969" lon="23.236064"><ele>954.2</ele></trkpt>
      <trkpt lat="42.643897" lon="23.235150"><ele>959.5</ele></trkpt>
      <trkpt lat="42.643847" lon="23.234746"><ele>958.0</ele></trkpt>
      <trkpt lat="42.643770" lon="23.234388"><ele>957.4</ele></trkpt>
      <trkpt lat="42.643579" lon="23.233853"><ele>954.6</ele></trkpt>
      <trkpt lat="42.643252" lon="23.233018"><ele>956.0</ele></trkpt>
      <trkpt lat="42.642997" lon="23.232359"><ele>953.0</ele></trkpt>
      <trkpt lat="42.642637" lon="23.231418"><ele>947.0</ele></trkpt>
      <trkpt lat="42.642472" lon="23.230961"><ele>967.4</ele></trkpt>
      <trkpt lat="42.642446" lon="23.230785"><ele>969.9</ele></trkpt>
      <trkpt lat="42.642452" lon="23.230594"><ele>971.2</ele></trkpt>
      <trkpt lat="42.642503" lon="23.230457"><ele>970.9</ele></trkpt>
      <trkpt lat="42.642781" lon="23.229931"><ele>972.8</ele></trkpt>
      <trkpt lat="42.642868" lon="23.229673"><ele>972.9</ele></trkpt>
      <trkpt lat="42.642906" lon="23.229438"><ele>977.4</ele></trkpt>
      <trkpt lat="42.642935" lon="23.229090"><ele>977.9</ele></trkpt>
      <trkpt lat="42.642937" lon="23.228882"><ele>977.6</ele></trkpt>
      <trkpt lat="42.642911" lon="23.228582"><ele>981.8</ele></trkpt>
      <trkpt lat="42.642856" lon="23.228390"><ele>982.2</ele></trkpt>
      <trkpt lat="42.642449" lon="23.227484"><ele>989.1</ele></trkpt>
      <trkpt lat="42.642421" lon="23.227238"><ele>992.9</ele></trkpt>
      <trkpt lat="42.642434" lon="23.227044"><ele>996.5</ele></trkpt>
      <trkpt lat="42.642494" lon="23.226895"><ele>997.5</ele></trkpt>
      <trkpt lat="42.642600" lon="23.226724"><ele>997.9</ele></trkpt>
      <trkpt lat="42.643123" lon="23.226253"><ele>1000.2</ele></trkpt>
      <trkpt lat="42.643212" lon="23.226117"><ele>1000.0</ele></trkpt>
      <trkpt lat="42.643262" lon="23.225975"><ele>999.5</ele></trkpt>
      <trkpt lat="42.643291" lon="23.225834"><ele>998.9</ele></trkpt>
      <trkpt lat="42.643276" lon="23.225646"><ele>999.5</ele></trkpt>
      <trkpt lat="42.643158" lon="23.225203"><ele>999.6</ele></trkpt>
      <trkpt lat="42.643146" lon="23.224964"><ele>1001.1</ele></trkpt>
      <trkpt lat="42.643218" lon="23.224428"><ele>1001.3</ele></trkpt>
      <trkpt lat="42.643221" lon="23.224301"><ele>1001.7</ele></trkpt>
      <trkpt lat="42.643200" lon="23.224155"><ele>1000.7</ele></trkpt>
      <trkpt lat="42.643153" lon="23.224044"><ele>1000.0</ele></trkpt>
      <trkpt lat="42.643064" lon="23.223902"><ele>999.2</ele></trkpt>
      <trkpt lat="42.642291" lon="23.223254"><ele>998.1</ele></trkpt>
      <trkpt lat="42.642166" lon="23.223116"><ele>997.5</ele></trkpt>
      <trkpt lat="42.641985" lon="23.222785"><ele>1005.8</ele></trkpt>
      <trkpt lat="42.641862" lon="23.222488"><ele>1007.5</ele></trkpt>
      <trkpt lat="42.641738" lon="23.222237"><ele>1007.6</ele></trkpt>
      <trkpt lat="42.641648" lon="23.222119"><ele>1009.5</ele></trkpt>
      <trkpt lat="42.641252" lon="23.221724"><ele>1012.9</ele></trkpt>
      <trkpt lat="42.641136" lon="23.221576"><ele>1013.7</ele></trkpt>
      <trkpt lat="42.641053" lon="23.221436"><ele>1015.1</ele></trkpt>
      <trkpt lat="42.640904" lon="23.221107"><ele>1016.6</ele></trkpt>
      <trkpt lat="42.640849" lon="23.220905"><ele>1016.2</ele></trkpt>
      <trkpt lat="42.640803" lon="23.220576"><ele>1023.3</ele></trkpt>
      <trkpt lat="42.640815" lon="23.220298"><ele>1024.7</ele></trkpt>
      <trkpt lat="42.640919" lon="23.219904"><ele>1025.9</ele></trkpt>
      <trkpt lat="42.641022" lon="23.219665"><ele>1028.3</ele></trkpt>
      <trkpt lat="42.641364" lon="23.219153"><ele>1035.3</ele></trkpt>
      <trkpt lat="42.641878" lon="23.218506"><ele>1032.7</ele></trkpt>
      <trkpt lat="42.641974" lon="23.218346"><ele>1032.3</ele></trkpt>
      <trkpt lat="42.642034" lon="23.218064"><ele>1032.5</ele></trkpt>
      <trkpt lat="42.642024" lon="23.217713"><ele>1031.3</ele></trkpt>
      <trkpt lat="42.641968" lon="23.217343"><ele>1030.2</ele></trkpt>
      <trkpt lat="42.641852" lon="23.216908"><ele>1029.9</ele></trkpt>
      <trkpt lat="42.641742" lon="23.216672"><ele>1029.7</ele></trkpt>
      <trkpt lat="42.641596" lon="23.216493"><ele>1029.2</ele></trkpt>
      <trkpt lat="42.641441" lon="23.216402"><ele>1027.9</ele></trkpt>
      <trkpt lat="42.641281" lon="23.216371"><ele>1027.2</ele></trkpt>
      <trkpt lat="42.641156" lon="23.216377"><ele>1026.8</ele></trkpt>
      <trkpt lat="42.640643" lon="23.216495"><ele>1027.8</ele></trkpt>
      <trkpt lat="42.640407" lon="23.216571"><ele>1027.5</ele></trkpt>
      <trkpt lat="42.639524" lon="23.216976"><ele>1037.3</ele></trkpt>
      <trkpt lat="42.639359" lon="23.217031"><ele>1039.4</ele></trkpt>
      <trkpt lat="42.638759" lon="23.217161"><ele>1041.9</ele></trkpt>
      <trkpt lat="42.638575" lon="23.217249"><ele>1041.6</ele></trkpt>
      <trkpt lat="42.638426" lon="23.217404"><ele>1041.4</ele></trkpt>
      <trkpt lat="42.638377" lon="23.217489"><ele>1041.2</ele></trkpt>
      <trkpt lat="42.638319" lon="23.217654"><ele>1040.8</ele></trkpt>
      <trkpt lat="42.638291" lon="23.217869"><ele>1040.9</ele></trkpt>
      <trkpt lat="42.638321" lon="23.218575"><ele>1040.5</ele></trkpt>
      <trkpt lat="42.638313" lon="23.218929"><ele>1040.8</ele></trkpt>
      <trkpt lat="42.638286" lon="23.219183"><ele>1042.3</ele></trkpt>
      <trkpt lat="42.638210" lon="23.219571"><ele>1052.0</ele></trkpt>
      <trkpt lat="42.637895" lon="23.220718"><ele>1059.5</ele></trkpt>
      <trkpt lat="42.637701" lon="23.221089"><ele>1060.6</ele></trkpt>
      <trkpt lat="42.637369" lon="23.221405"><ele>1062.7</ele></trkpt>
      <trkpt lat="42.636899" lon="23.221670"><ele>1069.7</ele></trkpt>
      <trkpt lat="42.635824" lon="23.222149"><ele>1082.3</ele></trkpt>
      <trkpt lat="42.634507" lon="23.222385"><ele>1088.0</ele></trkpt>
      <trkpt lat="42.634360" lon="23.222485"><ele>1091.3</ele></trkpt>
      <trkpt lat="42.634176" lon="23.222694"><ele>1092.4</ele></trkpt>
      <trkpt lat="42.633572" lon="23.223305"><ele>1101.3</ele></trkpt>
      <trkpt lat="42.633370" lon="23.223675"><ele>1104.9</ele></trkpt>
      <trkpt lat="42.633201" lon="23.224041"><ele>1109.9</ele></trkpt>
      <trkpt lat="42.633080" lon="23.224201"><ele>1110.5</ele></trkpt>
      <trkpt lat="42.632944" lon="23.224339"><ele>1112.8</ele></trkpt>
      <trkpt lat="42.632788" lon="23.224431"><ele>1116.7</ele></trkpt>
      <trkpt lat="42.632504" lon="23.224652"><ele>1117.8</ele></trkpt>
      <trkpt lat="42.632141" lon="23.225069"><ele>1119.3</ele></trkpt>
      <trkpt lat="42.631972" lon="23.225295"><ele>1121.0</ele></trkpt>
      <trkpt lat="42.631910" lon="23.225508"><ele>1121.6</ele></trkpt>
      <trkpt lat="42.631962" lon="23.225699"><ele>1122.5</ele></trkpt>
      <trkpt lat="42.632056" lon="23.225819"><ele>1122.8</ele></trkpt>
      <trkpt lat="42.632173" lon="23.225865"><ele>1123.5</ele></trkpt>
      <trkpt lat="42.632271" lon="23.225846"><ele>1123.1</ele></trkpt>
      <trkpt lat="42.632408" lon="23.225749"><ele>1122.9</ele></trkpt>
      <trkpt lat="42.633194" lon="23.224605"><ele>1119.3</ele></trkpt>
      <trkpt lat="42.633374" lon="23.224453"><ele>1116.5</ele></trkpt>
      <trkpt lat="42.634108" lon="23.223983"><ele>1116.1</ele></trkpt>
      <trkpt lat="42.634286" lon="23.223934"><ele>1117.7</ele></trkpt>
      <trkpt lat="42.634493" lon="23.224002"><ele>1117.7</ele></trkpt>
      <trkpt lat="42.634779" lon="23.224221"><ele>1119.4</ele></trkpt>
      <trkpt lat="42.635110" lon="23.224527"><ele>1127.9</ele></trkpt>
      <trkpt lat="42.635459" lon="23.224684"><ele>1132.2</ele></trkpt>
      <trkpt lat="42.636188" lon="23.224762"><ele>1134.4</ele></trkpt>
      <trkpt lat="42.636276" lon="23.224807"><ele>1133.9</ele></trkpt>
      <trkpt lat="42.636351" lon="23.224883"><ele>1133.4</ele></trkpt>
      <trkpt lat="42.636400" lon="23.224985"><ele>1133.0</ele></trkpt>
      <trkpt lat="42.636413" lon="23.225164"><ele>1134.8</ele></trkpt>
      <trkpt lat="42.636372" lon="23.225308"><ele>1143.0</ele></trkpt>
      <trkpt lat="42.636290" lon="23.225409"><ele>1143.8</ele></trkpt>
      <trkpt lat="42.636151" lon="23.225458"><ele>1143.6</ele></trkpt>
      <trkpt lat="42.635586" lon="23.225382"><ele>1148.0</ele></trkpt>
      <trkpt lat="42.635373" lon="23.225350"><ele>1147.6</ele></trkpt>
      <trkpt lat="42.635034" lon="23.225356"><ele>1147.7</ele></trkpt>
      <trkpt lat="42.634804" lon="23.225440"><ele>1147.4</ele></trkpt>
      <trkpt lat="42.634469" lon="23.225621"><ele>1147.6</ele></trkpt>
      <trkpt lat="42.634268" lon="23.225801"><ele>1147.3</ele></trkpt>
      <trkpt lat="42.634119" lon="23.226015"><ele>1147.4</ele></trkpt>
      <trkpt lat="42.633900" lon="23.226931"><ele>1152.1</ele></trkpt>
      <trkpt lat="42.633686" lon="23.227480"><ele>1154.2</ele></trkpt>
      <trkpt lat="42.633401" lon="23.227939"><ele>1162.1</ele></trkpt>
      <trkpt lat="42.633136" lon="23.228223"><ele>1166.1</ele></trkpt>
      <trkpt lat="42.632599" lon="23.228575"><ele>1176.3</ele></trkpt>
      <trkpt lat="42.632218" lon="23.228889"><ele>1179.5</ele></trkpt>
      <trkpt lat="42.632000" lon="23.229167"><ele>1180.1</ele></trkpt>
      <trkpt lat="42.631623" lon="23.229721"><ele>1185.7</ele></trkpt>
      <trkpt lat="42.631505" lon="23.229833"><ele>1186.3</ele></trkpt>
      <trkpt lat="42.631338" lon="23.229953"><ele>1187.4</ele></trkpt>
      <trkpt lat="42.631018" lon="23.230130"><ele>1190.3</ele></trkpt>
      <trkpt lat="42.630657" lon="23.230227"><ele>1193.7</ele></trkpt>
      <trkpt lat="42.630505" lon="23.230228"><ele>1195.2</ele></trkpt>
      <trkpt lat="42.630070" lon="23.230162"><ele>1200.6</ele></trkpt>
      <trkpt lat="42.629690" lon="23.230048"><ele>1202.8</ele></trkpt>
      <trkpt lat="42.629316" lon="23.229994"><ele>1203.6</ele></trkpt>
      <trkpt lat="42.629035" lon="23.230014"><ele>1204.8</ele></trkpt>
      <trkpt lat="42.628815" lon="23.230076"><ele>1209.0</ele></trkpt>
      <trkpt lat="42.628602" lon="23.230128"><ele>1209.6</ele></trkpt>
      <trkpt lat="42.628145" lon="23.230393"><ele>1211.0</ele></trkpt>
      <trkpt lat="42.628071" lon="23.230496"><ele>1211.0</ele></trkpt>
      <trkpt lat="42.628049" lon="23.230552"><ele>1211.0</ele></trkpt>
      <trkpt lat="42.628058" lon="23.230676"><ele>1211.0</ele></trkpt>
      <trkpt lat="42.628103" lon="23.230763"><ele>1211.0</ele></trkpt>
      <trkpt lat="42.628220" lon="23.230798"><ele>1211.9</ele></trkpt>
      <trkpt lat="42.628613" lon="23.230727"><ele>1213.4</ele></trkpt>
      <trkpt lat="42.628810" lon="23.230724"><ele>1214.7</ele></trkpt>
      <trkpt lat="42.629123" lon="23.230794"><ele>1215.3</ele></trkpt>
      <trkpt lat="42.629304" lon="23.230891"><ele>1216.0</ele></trkpt>
      <trkpt lat="42.629801" lon="23.231336"><ele>1220.3</ele></trkpt>
      <trkpt lat="42.630000" lon="23.231439"><ele>1220.8</ele></trkpt>
      <trkpt lat="42.630414" lon="23.231611"><ele>1224.8</ele></trkpt>
      <trkpt lat="42.631039" lon="23.231821"><ele>1229.6</ele></trkpt>
      <trkpt lat="42.631517" lon="23.231935"><ele>1238.2</ele></trkpt>
      <trkpt lat="42.631852" lon="23.231913"><ele>1241.2</ele></trkpt>
      <trkpt lat="42.632569" lon="23.231764"><ele>1246.8</ele></trkpt>
      <trkpt lat="42.632853" lon="23.231734"><ele>1246.5</ele></trkpt>
      <trkpt lat="42.633257" lon="23.231733"><ele>1248.8</ele></trkpt>
      <trkpt lat="42.633380" lon="23.231715"><ele>1248.2</ele></trkpt>
      <trkpt lat="42.633506" lon="23.231667"><ele>1248.8</ele></trkpt>
      <trkpt lat="42.633681" lon="23.231545"><ele>1248.3</ele></trkpt>
      <trkpt lat="42.633801" lon="23.231423"><ele>1250.0</ele></trkpt>
      <trkpt lat="42.634184" lon="23.230919"><ele>1254.2</ele></trkpt>
      <trkpt lat="42.634340" lon="23.230810"><ele>1257.0</ele></trkpt>
      <trkpt lat="42.634461" lon="23.230806"><ele>1259.1</ele></trkpt>
      <trkpt lat="42.634658" lon="23.230887"><ele>1260.9</ele></trkpt>
      <trkpt lat="42.635058" lon="23.231121"><ele>1264.6</ele></trkpt>
      <trkpt lat="42.635161" lon="23.231213"><ele>1265.8</ele></trkpt>
      <trkpt lat="42.635330" lon="23.231461"><ele>1266.0</ele></trkpt>
      <trkpt lat="42.635383" lon="23.231587"><ele>1266.2</ele></trkpt>
      <trkpt lat="42.635415" lon="23.231724"><ele>1267.3</ele></trkpt>
      <trkpt lat="42.635412" lon="23.231854"><ele>1267.1</ele></trkpt>
      <trkpt lat="42.635390" lon="23.231946"><ele>1266.8</ele></trkpt>
      <trkpt lat="42.635227" lon="23.232304"><ele>1267.2</ele></trkpt>
      <trkpt lat="42.634939" lon="23.232873"><ele>1276.0</ele></trkpt>
      <trkpt lat="42.634813" lon="23.233218"><ele>1281.7</ele></trkpt>
      <trkpt lat="42.634668" lon="23.233880"><ele>1283.9</ele></trkpt>
      <trkpt lat="42.634565" lon="23.234203"><ele>1284.8</ele></trkpt>
      <trkpt lat="42.634451" lon="23.234404"><ele>1285.2</ele></trkpt>
      <trkpt lat="42.634275" lon="23.234609"><ele>1286.6</ele></trkpt>
      <trkpt lat="42.634135" lon="23.234736"><ele>1287.2</ele></trkpt>
      <trkpt lat="42.633922" lon="23.234856"><ele>1287.5</ele></trkpt>
      <trkpt lat="42.633808" lon="23.234877"><ele>1287.4</ele></trkpt>
      <trkpt lat="42.633685" lon="23.234874"><ele>1287.2</ele></trkpt>
      <trkpt lat="42.633286" lon="23.234825"><ele>1287.9</ele></trkpt>
      <trkpt lat="42.633103" lon="23.234865"><ele>1288.2</ele></trkpt>
      <trkpt lat="42.633020" lon="23.234909"><ele>1291.0</ele></trkpt>
      <trkpt lat="42.632952" lon="23.235038"><ele>1304.3</ele></trkpt>
      <trkpt lat="42.632933" lon="23.235150"><ele>1303.9</ele></trkpt>
      <trkpt lat="42.632947" lon="23.235251"><ele>1304.7</ele></trkpt>
      <trkpt lat="42.632993" lon="23.235391"><ele>1304.4</ele></trkpt>
      <trkpt lat="42.634165" lon="23.237171"><ele>1322.6</ele></trkpt>
      <trkpt lat="42.634313" lon="23.237413"><ele>1322.9</ele></trkpt>
      <trkpt lat="42.634378" lon="23.237544"><ele>1323.5</ele></trkpt>
      <trkpt lat="42.634428" lon="23.237698"><ele>1324.9</ele></trkpt>
      <trkpt lat="42.634441" lon="23.237804"><ele>1325.0</ele></trkpt>
      <trkpt lat="42.634436" lon="23.237974"><ele>1326.4</ele></trkpt>
      <trkpt lat="42.634371" lon="23.238248"><ele>1327.6</ele></trkpt>
      <trkpt lat="42.634243" lon="23.238582"><ele>1331.6</ele></trkpt>
      <trkpt lat="42.633910" lon="23.239318"><ele>1334.9</ele></trkpt>
      <trkpt lat="42.633793" lon="23.239715"><ele>1337.3</ele></trkpt>
      <trkpt lat="42.633780" lon="23.239906"><ele>1338.3</ele></trkpt>
      <trkpt lat="42.633798" lon="23.240060"><ele>1338.8</ele></trkpt>
      <trkpt lat="42.633860" lon="23.240325"><ele>1338.8</ele></trkpt>
      <trkpt lat="42.634258" lon="23.241685"><ele>1343.3</ele></trkpt>
      <trkpt lat="42.634360" lon="23.241954"><ele>1342.8</ele></trkpt>
      <trkpt lat="42.634502" lon="23.242217"><ele>1342.7</ele></trkpt>
      <trkpt lat="42.635049" lon="23.242908"><ele>1342.8</ele></trkpt>
      <trkpt lat="42.635214" lon="23.243048"><ele>1343.3</ele></trkpt>
      <trkpt lat="42.635307" lon="23.243098"><ele>1343.6</ele></trkpt>
      <trkpt lat="42.635694" lon="23.243207"><ele>1344.3</ele></trkpt>
      <trkpt lat="42.636099" lon="23.243367"><ele>1345.0</ele></trkpt>
      <trkpt lat="42.636268" lon="23.243510"><ele>1344.7</ele></trkpt>
      <trkpt lat="42.636336" lon="23.243657"><ele>1346.0</ele></trkpt>
      <trkpt lat="42.636433" lon="23.243648"><ele>1346.0</ele></trkpt>
    </trkseg>
  </trk>
</gpx>
