<?xml version="1.0" encoding="UTF-8"?>
<gpx version="1.1" creator="Apex" xmlns="http://www.topografix.com/GPX/1/1">
  <metadata>
    <name>Dragalevtsi to Aleko</name>
  </metadata>
  <trk>
    <name>Dragalevtsi to Aleko</name>
    <trkseg>
      <trkpt lat="42.630612" lon="23.313317"><ele>752.4</ele></trkpt>
      <trkpt lat="42.630613" lon="23.313404"><ele>752.3</ele></trkpt>
      <trkpt lat="42.630685" lon="23.313556"><ele>752.0</ele></trkpt>
      <trkpt lat="42.630629" lon="23.313639"><ele>752.0</ele></trkpt>
      <trkpt lat="42.630501" lon="23.313703"><ele>752.0</ele></trkpt>
      <trkpt lat="42.630329" lon="23.313661"><ele>752.0</ele></trkpt>
      <trkpt lat="42.630006" lon="23.313492"><ele>752.0</ele></trkpt>
      <trkpt lat="42.629810" lon="23.313344"><ele>758.7</ele></trkpt>
      <trkpt lat="42.629588" lon="23.313107"><ele>764.0</ele></trkpt>
      <trkpt lat="42.629454" lon="23.312828"><ele>768.6</ele></trkpt>
      <trkpt lat="42.629302" lon="23.312457"><ele>769.5</ele></trkpt>
      <trkpt lat="42.629204" lon="23.312057"><ele>770.0</ele></trkpt>
      <trkpt lat="42.629161" lon="23.311613"><ele>781.0</ele></trkpt>
      <trkpt lat="42.629148" lon="23.311314"><ele>781.0</ele></trkpt>
      <trkpt lat="42.629139" lon="23.311157"><ele>781.0</ele></trkpt>
      <trkpt lat="42.629101" lon="23.310479"><ele>786.0</ele></trkpt>
      <trkpt lat="42.629106" lon="23.309789"><ele>789.0</ele></trkpt>
      <trkpt lat="42.628994" lon="23.309730"><ele>789.0</ele></trkpt>
      <trkpt lat="42.628966" lon="23.309698"><ele>789.0</ele></trkpt>
      <trkpt lat="42.628951" lon="23.309655"><ele>789.0</ele></trkpt>
      <trkpt lat="42.628950" lon="23.309203"><ele>789.0</ele></trkpt>
      <trkpt lat="42.628941" lon="23.309179"><ele>789.0</ele></trkpt>
      <trkpt lat="42.628783" lon="23.309053"><ele>789.0</ele></trkpt>
      <trkpt lat="42.628625" lon="23.308947"><ele>791.8</ele></trkpt>
      <trkpt lat="42.628198" lon="23.308725"><ele>800.0</ele></trkpt>
      <trkpt lat="42.627454" lon="23.308275"><ele>815.0</ele></trkpt>
      <trkpt lat="42.627245" lon="23.308148"><ele>815.0</ele></trkpt>
      <trkpt lat="42.627028" lon="23.308014"><ele>815.0</ele></trkpt>
      <trkpt lat="42.626870" lon="23.307917"><ele>818.8</ele></trkpt>
      <trkpt lat="42.626679" lon="23.307892"><ele>818.0</ele></trkpt>
      <trkpt lat="42.626351" lon="23.307906"><ele>827.0</ele></trkpt>
      <trkpt lat="42.625991" lon="23.307923"><ele>827.0</ele></trkpt>
      <trkpt lat="42.625749" lon="23.307931"><ele>839.0</ele></trkpt>
      <trkpt lat="42.625679" lon="23.307836"><ele>839.0</ele></trkpt>
      <trkpt lat="42.625584" lon="23.307828"><ele>839.0</ele></trkpt>
      <trkpt lat="42.625505" lon="23.307856"><ele>839.0</ele></trkpt>
      <trkpt lat="42.625256" lon="23.308146"><ele>839.0</ele></trkpt>
      <trkpt lat="42.624251" lon="23.308872"><ele>845.3</ele></trkpt>
      <trkpt lat="42.624033" lon="23.308941"><ele>854.0</ele></trkpt>
      <trkpt lat="42.623846" lon="23.308944"><ele>854.0</ele></trkpt>
      <trkpt lat="42.623587" lon="23.309015"><ele>854.4</ele></trkpt>
      <trkpt lat="42.623248" lon="23.309170"><ele>855.2</ele></trkpt>
      <trkpt lat="42.622916" lon="23.309209"><ele>853.0</ele></trkpt>
      <trkpt lat="42.622679" lon="23.309217"><ele>853.0</ele></trkpt>
      <trkpt lat="42.622469" lon="23.309134"><ele>867.7</ele></trkpt>
      <trkpt lat="42.622019" lon="23.308860"><ele>868.4</ele></trkpt>
      <trkpt lat="42.621413" lon="23.308711"><ele>869.0</ele></trkpt>
      <trkpt lat="42.621130" lon="23.308474"><ele>871.0</ele></trkpt>
      <trkpt lat="42.621036" lon="23.308413"><ele>878.3</ele></trkpt>
      <trkpt lat="42.620763" lon="23.308416"><ele>877.7</ele></trkpt>
      <trkpt lat="42.620719" lon="23.308399"><ele>877.9</ele></trkpt>
      <trkpt lat="42.620686" lon="23.308360"><ele>878.0</ele></trkpt>
      <trkpt lat="42.620673" lon="23.308295"><ele>878.9</ele></trkpt>
      <trkpt lat="42.620686" lon="23.308159"><ele>880.5</ele></trkpt>
      <trkpt lat="42.620808" lon="23.307953"><ele>882.6</ele></trkpt>
      <trkpt lat="42.621069" lon="23.307764"><ele>883.0</ele></trkpt>
      <trkpt lat="42.621127" lon="23.307721"><ele>883.0</ele></trkpt>
      <trkpt lat="42.621350" lon="23.307511"><ele>887.9</ele></trkpt>
      <trkpt lat="42.621615" lon="23.307163"><ele>890.5</ele></trkpt>
      <trkpt lat="42.621848" lon="23.306809"><ele>890.7</ele></trkpt>
      <trkpt lat="42.622107" lon="23.306053"><ele>897.1</ele></trkpt>
      <trkpt lat="42.622266" lon="23.305012"><ele>910.0</ele></trkpt>
      <trkpt lat="42.622308" lon="23.304193"><ele>918.0</ele></trkpt>
      <trkpt lat="42.622136" lon="23.304379"><ele>918.0</ele></trkpt>
      <trkpt lat="42.621925" lon="23.304685"><ele>918.0</ele></trkpt>
      <trkpt lat="42.621724" lon="23.304846"><ele>924.0</ele></trkpt>
      <trkpt lat="42.621436" lon="23.304986"><ele>926.7</ele></trkpt>
      <trkpt lat="42.621140" lon="23.305031"><ele>925.6</ele></trkpt>
      <trkpt lat="42.620862" lon="23.304937"><ele>926.2</ele></trkpt>
      <trkpt lat="42.620437" lon="23.304922"><ele>929.3</ele></trkpt>
      <trkpt lat="42.620264" lon="23.304838"><ele>940.0</ele></trkpt>
      <trkpt lat="42.620134" lon="23.304789"><ele>940.0</ele></trkpt>
      <trkpt lat="42.619959" lon="23.304672"><ele>978.0</ele></trkpt>
      <trkpt lat="42.620301" lon="23.303480"><ele>958.4</ele></trkpt>
      <trkpt lat="42.620387" lon="23.303094"><ele>959.3</ele></trkpt>
      <trkpt lat="42.620384" lon="23.303024"><ele>959.8</ele></trkpt>
      <trkpt lat="42.620359" lon="23.302982"><ele>963.0</ele></trkpt>
      <trkpt lat="42.620262" lon="23.302982"><ele>975.4</ele></trkpt>
      <trkpt lat="42.619975" lon="23.303157"><ele>975.6</ele></trkpt>
      <trkpt lat="42.619820" lon="23.303226"><ele>976.5</ele></trkpt>
      <trkpt lat="42.619743" lon="23.303224"><ele>977.4</ele></trkpt>
      <trkpt lat="42.619674" lon="23.303170"><ele>978.2</ele></trkpt>
      <trkpt lat="42.619661" lon="23.303035"><ele>979.0</ele></trkpt>
      <trkpt lat="42.619673" lon="23.302939"><ele>979.7</ele></trkpt>
      <trkpt lat="42.619754" lon="23.302605"><ele>981.0</ele></trkpt>
      <trkpt lat="42.619828" lon="23.302386"><ele>989.0</ele></trkpt>
      <trkpt lat="42.619845" lon="23.302331"><ele>989.0</ele></trkpt>
      <trkpt lat="42.619829" lon="23.302236"><ele>989.0</ele></trkpt>
      <trkpt lat="42.619565" lon="23.301871"><ele>989.0</ele></trkpt>
      <trkpt lat="42.619562" lon="23.301809"><ele>989.0</ele></trkpt>
      <trkpt lat="42.619587" lon="23.301741"><ele>989.0</ele></trkpt>
      <trkpt lat="42.619667" lon="23.301552"><ele>996.0</ele></trkpt>
      <trkpt lat="42.619721" lon="23.301408"><ele>1004.7</ele></trkpt>
      <trkpt lat="42.619723" lon="23.301322"><ele>1004.4</ele></trkpt>
      <trkpt lat="42.619702" lon="23.301265"><ele>1004.2</ele></trkpt>
      <trkpt lat="42.619615" lon="23.301164"><ele>1006.4</ele></trkpt>
      <trkpt lat="42.619507" lon="23.301084"><ele>1006.0</ele></trkpt>
      <trkpt lat="42.619366" lon="23.300921"><ele>1005.6</ele></trkpt>
      <trkpt lat="42.619221" lon="23.300800"><ele>1005.7</ele></trkpt>
      <trkpt lat="42.619019" lon="23.300697"><ele>1006.4</ele></trkpt>
      <trkpt lat="42.618958" lon="23.300602"><ele>1006.7</ele></trkpt>
      <trkpt lat="42.618925" lon="23.300457"><ele>1007.0</ele></trkpt>
      <trkpt lat="42.618884" lon="23.300367"><ele>1007.3</ele></trkpt>
      <trkpt lat="42.618821" lon="23.300291"><ele>1007.6</ele></trkpt>
      <trkpt lat="42.618618" lon="23.300204"><ele>1009.6</ele></trkpt>
      <trkpt lat="42.618549" lon="23.300102"><ele>1010.7</ele></trkpt>
      <trkpt lat="42.618583" lon="23.300033"><ele>1010.8</ele></trkpt>
      <trkpt lat="42.618666" lon="23.299974"><ele>1011.8</ele></trkpt>
      <trkpt lat="42.618803" lon="23.299953"><ele>1011.9</ele></trkpt>
      <trkpt lat="42.618919" lon="23.299963"><ele>1011.5</ele></trkpt>
      <trkpt lat="42.619414" lon="23.300202"><ele>1010.8</ele></trkpt>
      <trkpt lat="42.619802" lon="23.300281"><ele>1009.0</ele></trkpt>
      <trkpt lat="42.620001" lon="23.300101"><ele>1023.0</ele></trkpt>
      <trkpt lat="42.620247" lon="23.299844"><ele>1023.6</ele></trkpt>
      <trkpt lat="42.620290" lon="23.299789"><ele>1023.9</ele></trkpt>
      <trkpt lat="42.620302" lon="23.299734"><ele>1024.1</ele></trkpt>
      <trkpt lat="42.620281" lon="23.299652"><ele>1024.6</ele></trkpt>
      <trkpt lat="42.620254" lon="23.299629"><ele>1024.8</ele></trkpt>
      <trkpt lat="42.620187" lon="23.299639"><ele>1025.1</ele></trkpt>
      <trkpt lat="42.620053" lon="23.299715"><ele>1025.5</ele></trkpt>
      <trkpt lat="42.619965" lon="23.299683"><ele>1025.7</ele></trkpt>
      <trkpt lat="42.619911" lon="23.299620"><ele>1027.0</ele></trkpt>
      <trkpt lat="42.619823" lon="23.299500"><ele>1033.1</ele></trkpt>
      <trkpt lat="42.619584" lon="23.299264"><ele>1032.1</ele></trkpt>
      <trkpt lat="42.619559" lon="23.299193"><ele>1031.5</ele></trkpt>
      <trkpt lat="42.619568" lon="23.299147"><ele>1032.5</ele></trkpt>
      <trkpt lat="42.619615" lon="23.299108"><ele>1035.3</ele></trkpt>
      <trkpt lat="42.619970" lon="23.299250"><ele>1035.0</ele></trkpt>
      <trkpt lat="42.620035" lon="23.299236"><ele>1034.6</ele></trkpt>
      <trkpt lat="42.620132" lon="23.299149"><ele>1038.0</ele></trkpt>
      <trkpt lat="42.620167" lon="23.299034"><ele>1047.2</ele></trkpt>
      <trkpt lat="42.620181" lon="23.298858"><ele>1046.1</ele></trkpt>
      <trkpt lat="42.620183" lon="23.298431"><ele>1045.1</ele></trkpt>
      <trkpt lat="42.620159" lon="23.298255"><ele>1045.2</ele></trkpt>
      <trkpt lat="42.620078" lon="23.297989"><ele>1045.3</ele></trkpt>
      <trkpt lat="42.619960" lon="23.297714"><ele>1073.0</ele></trkpt>
      <trkpt lat="42.619935" lon="23.297618"><ele>1079.3</ele></trkpt>
      <trkpt lat="42.619920" lon="23.297464"><ele>1092.0</ele></trkpt>
      <trkpt lat="42.619772" lon="23.297675"><ele>1085.0</ele></trkpt>
      <trkpt lat="42.619514" lon="23.297995"><ele>1081.3</ele></trkpt>
      <trkpt lat="42.619471" lon="23.298028"><ele>1080.8</ele></trkpt>
      <trkpt lat="42.619407" lon="23.298026"><ele>1080.3</ele></trkpt>
      <trkpt lat="42.619346" lon="23.298000"><ele>1079.9</ele></trkpt>
      <trkpt lat="42.619275" lon="23.297937"><ele>1079.4</ele></trkpt>
      <trkpt lat="42.619266" lon="23.297835"><ele>1080.3</ele></trkpt>
      <trkpt lat="42.619362" lon="23.297468"><ele>1081.9</ele></trkpt>
      <trkpt lat="42.619521" lon="23.297157"><ele>1083.7</ele></trkpt>
      <trkpt lat="42.619639" lon="23.296830"><ele>1085.5</ele></trkpt>
      <trkpt lat="42.619677" lon="23.296490"><ele>1088.1</ele></trkpt>
      <trkpt lat="42.619736" lon="23.296325"><ele>1089.1</ele></trkpt>
      <trkpt lat="42.619831" lon="23.296201"><ele>1100.5</ele></trkpt>
      <trkpt lat="42.620042" lon="23.296083"><ele>1105.2</ele></trkpt>
      <trkpt lat="42.620272" lon="23.295927"><ele>1106.1</ele></trkpt>
      <trkpt lat="42.620607" lon="23.295618"><ele>1109.9</ele></trkpt>
      <trkpt lat="42.620739" lon="23.295368"><ele>1117.6</ele></trkpt>
      <trkpt lat="42.620774" lon="23.295092"><ele>1118.0</ele></trkpt>
      <trkpt lat="42.620683" lon="23.294272"><ele>1120.3</ele></trkpt>
      <trkpt lat="42.620677" lon="23.293843"><ele>1123.8</ele></trkpt>
      <trkpt lat="42.620591" lon="23.293741"><ele>1125.3</ele></trkpt>
      <trkpt lat="42.620485" lon="23.293741"><ele>1126.1</ele></trkpt>
      <trkpt lat="42.620396" lon="23.293812"><ele>1126.0</ele></trkpt>
      <trkpt lat="42.620362" lon="23.293981"><ele>1127.2</ele></trkpt>
      <trkpt lat="42.620396" lon="23.294226"><ele>1125.1</ele></trkpt>
      <trkpt lat="42.620401" lon="23.294463"><ele>1123.3</ele></trkpt>
      <trkpt lat="42.620339" lon="23.294654"><ele>1123.3</ele></trkpt>
      <trkpt lat="42.620203" lon="23.294806"><ele>1122.1</ele></trkpt>
      <trkpt lat="42.619961" lon="23.295004"><ele>1123.4</ele></trkpt>
      <trkpt lat="42.619826" lon="23.295030"><ele>1128.4</ele></trkpt>
      <trkpt lat="42.619311" lon="23.295033"><ele>1136.6</ele></trkpt>
      <trkpt lat="42.619052" lon="23.294978"><ele>1138.3</ele></trkpt>
      <trkpt lat="42.618789" lon="23.294990"><ele>1140.3</ele></trkpt>
      <trkpt lat="42.618667" lon="23.294969"><ele>1141.7</ele></trkpt>
      <trkpt lat="42.618604" lon="23.294891"><ele>1143.1</ele></trkpt>
      <trkpt lat="42.618573" lon="23.294785"><ele>1143.5</ele></trkpt>
      <trkpt lat="42.618594" lon="23.294654"><ele>1143.8</ele></trkpt>
      <trkpt lat="42.618656" lon="23.294565"><ele>1143.0</ele></trkpt>
      <trkpt lat="42.618768" lon="23.294548"><ele>1142.4</ele></trkpt>
      <trkpt lat="42.618941" lon="23.294624"><ele>1141.8</ele></trkpt>
      <trkpt lat="42.619086" lon="23.294650"><ele>1139.8</ele></trkpt>
      <trkpt lat="42.619203" lon="23.294541"><ele>1139.7</ele></trkpt>
      <trkpt lat="42.619235" lon="23.294420"><ele>1139.6</ele></trkpt>
      <trkpt lat="42.619189" lon="23.294268"><ele>1139.6</ele></trkpt>
      <trkpt lat="42.619120" lon="23.294204"><ele>1140.0</ele></trkpt>
      <trkpt lat="42.618682" lon="23.294123"><ele>1148.4</ele></trkpt>
      <trkpt lat="42.618474" lon="23.294165"><ele>1171.0</ele></trkpt>
      <trkpt lat="42.618328" lon="23.294282"><ele>1174.2</ele></trkpt>
      <trkpt lat="42.618117" lon="23.294611"><ele>1174.9</ele></trkpt>
      <trkpt lat="42.617966" lon="23.294937"><ele>1175.6</ele></trkpt>
      <trkpt lat="42.617815" lon="23.295096"><ele>1173.6</ele></trkpt>
      <trkpt lat="42.617552" lon="23.295290"><ele>1171.1</ele></trkpt>
      <trkpt lat="42.617348" lon="23.295371"><ele>1173.4</ele></trkpt>
      <trkpt lat="42.616405" lon="23.295395"><ele>1178.8</ele></trkpt>
      <trkpt lat="42.616057" lon="23.295358"><ele>1186.8</ele></trkpt>
      <trkpt lat="42.615105" lon="23.295133"><ele>1195.2</ele></trkpt>
      <trkpt lat="42.614691" lon="23.294973"><ele>1206.0</ele></trkpt>
      <trkpt lat="42.614045" lon="23.294521"><ele>1213.0</ele></trkpt>
      <trkpt lat="42.613943" lon="23.294469"><ele>1213.2</ele></trkpt>
      <trkpt lat="42.613784" lon="23.294455"><ele>1216.8</ele></trkpt>
      <trkpt lat="42.613648" lon="23.294512"><ele>1218.2</ele></trkpt>
      <trkpt lat="42.613466" lon="23.294724"><ele>1217.9</ele></trkpt>
      <trkpt lat="42.613246" lon="23.295172"><ele>1223.0</ele></trkpt>
      <trkpt lat="42.613036" lon="23.295449"><ele>1225.6</ele></trkpt>
      <trkpt lat="42.612253" lon="23.296011"><ele>1238.9</ele></trkpt>
      <trkpt lat="42.611941" lon="23.296166"><ele>1240.1</ele></trkpt>
      <trkpt lat="42.611549" lon="23.296307"><ele>1244.3</ele></trkpt>
      <trkpt lat="42.611016" lon="23.296634"><ele>1247.8</ele></trkpt>
      <trkpt lat="42.610751" lon="23.296742"><ele>1248.3</ele></trkpt>
      <trkpt lat="42.610529" lon="23.296725"><ele>1247.2</ele></trkpt>
      <trkpt lat="42.610288" lon="23.296616"><ele>1248.8</ele></trkpt>
      <trkpt lat="42.609766" lon="23.296107"><ele>1254.4</ele></trkpt>
      <trkpt lat="42.609561" lon="23.295954"><ele>1261.0</ele></trkpt>
      <trkpt lat="42.608891" lon="23.295712"><ele>1275.6</ele></trkpt>
      <trkpt lat="42.608628" lon="23.295593"><ele>1277.9</ele></trkpt>
      <trkpt lat="42.608439" lon="23.295552"><ele>1284.6</ele></trkpt>
      <trkpt lat="42.608321" lon="23.295569"><ele>1295.0</ele></trkpt>
      <trkpt lat="42.608248" lon="23.295689"><ele>1295.0</ele></trkpt>
      <trkpt lat="42.608185" lon="23.295866"><ele>1293.9</ele></trkpt>
      <trkpt lat="42.608209" lon="23.296087"><ele>1293.9</ele></trkpt>
      <trkpt lat="42.608300" lon="23.296392"><ele>1293.7</ele></trkpt>
      <trkpt lat="42.608330" lon="23.296581"><ele>1293.6</ele></trkpt>
      <trkpt lat="42.608326" lon="23.296823"><ele>1294.1</ele></trkpt>
      <trkpt lat="42.608236" lon="23.297268"><ele>1294.6</ele></trkpt>
      <trkpt lat="42.608240" lon="23.297452"><ele>1294.6</ele></trkpt>
      <trkpt lat="42.608410" lon="23.298115"><ele>1293.6</ele></trkpt>
      <trkpt lat="42.608569" lon="23.298619"><ele>1292.2</ele></trkpt>
      <trkpt lat="42.608802" lon="23.299093"><ele>1287.7</ele></trkpt>
      <trkpt lat="42.608950" lon="23.299353"><ele>1297.0</ele></trkpt>
      <trkpt lat="42.609309" lon="23.300075"><ele>1285.0</ele></trkpt>
      <trkpt lat="42.609377" lon="23.300303"><ele>1284.9</ele></trkpt>
      <trkpt lat="42.609423" lon="23.300732"><ele>1285.9</ele></trkpt>
      <trkpt lat="42.609387" lon="23.301020"><ele>1286.2</ele></trkpt>
      <trkpt lat="42.609337" lon="23.301161"><ele>1287.5</ele></trkpt>
      <trkpt lat="42.609142" lon="23.301483"><ele>1289.8</ele></trkpt>
      <trkpt lat="42.608778" lon="23.301952"><ele>1298.7</ele></trkpt>
      <trkpt lat="42.607897" lon="23.302800"><ele>1316.2</ele></trkpt>
      <trkpt lat="42.607504" lon="23.303296"><ele>1319.4</ele></trkpt>
      <trkpt lat="42.607258" lon="23.303806"><ele>1327.7</ele></trkpt>
      <trkpt lat="42.606850" lon="23.304954"><ele>1333.7</ele></trkpt>
      <trkpt lat="42.606296" lon="23.306386"><ele>1342.1</ele></trkpt>
      <trkpt lat="42.606108" lon="23.306927"><ele>1345.3</ele></trkpt>
      <trkpt lat="42.605938" lon="23.307154"><ele>1344.6</ele></trkpt>
      <trkpt lat="42.605429" lon="23.307435"><ele>1348.4</ele></trkpt>
      <trkpt lat="42.604554" lon="23.307731"><ele>1361.2</ele></trkpt>
      <trkpt lat="42.603950" lon="23.307809"><ele>1361.6</ele></trkpt>
      <trkpt lat="42.603533" lon="23.307823"><ele>1361.1</ele></trkpt>
      <trkpt lat="42.603398" lon="23.307784"><ele>1360.7</ele></trkpt>
      <trkpt lat="42.603304" lon="23.307671"><ele>1361.0</ele></trkpt>
      <trkpt lat="42.603281" lon="23.307584"><ele>1361.2</ele></trkpt>
      <trkpt lat="42.603289" lon="23.307479"><ele>1362.4</ele></trkpt>
      <trkpt lat="42.603331" lon="23.307380"><ele>1363.4</ele></trkpt>
      <trkpt lat="42.603678" lon="23.306893"><ele>1364.9</ele></trkpt>
      <trkpt lat="42.603783" lon="23.306599"><ele>1365.8</ele></trkpt>
      <trkpt lat="42.603963" lon="23.305593"><ele>1378.1</ele></trkpt>
      <trkpt lat="42.604166" lon="23.304772"><ele>1386.5</ele></trkpt>
      <trkpt lat="42.604332" lon="23.303813"><ele>1390.0</ele></trkpt>
      <trkpt lat="42.604389" lon="23.303080"><ele>1399.3</ele></trkpt>
      <trkpt lat="42.604395" lon="23.302386"><ele>1408.0</ele></trkpt>
      <trkpt lat="42.604406" lon="23.301619"><ele>1414.6</ele></trkpt>
      <trkpt lat="42.604471" lon="23.301085"><ele>1414.3</ele></trkpt>
      <trkpt lat="42.604527" lon="23.300781"><ele>1423.0</ele></trkpt>
      <trkpt lat="42.604558" lon="23.300630"><ele>1423.0</ele></trkpt>
      <trkpt lat="42.604636" lon="23.300015"><ele>1430.0</ele></trkpt>
      <trkpt lat="42.604631" lon="23.299933"><ele>1432.2</ele></trkpt>
      <trkpt lat="42.604603" lon="23.299857"><ele>1434.0</ele></trkpt>
      <trkpt lat="42.604546" lon="23.299796"><ele>1445.0</ele></trkpt>
      <trkpt lat="42.604465" lon="23.299784"><ele>1438.9</ele></trkpt>
      <trkpt lat="42.604419" lon="23.299801"><ele>1439.4</ele></trkpt>
      <trkpt lat="42.604330" lon="23.299939"><ele>1440.2</ele></trkpt>
      <trkpt lat="42.604288" lon="23.300128"><ele>1438.9</ele></trkpt>
      <trkpt lat="42.604274" lon="23.300390"><ele>1436.7</ele></trkpt>
      <trkpt lat="42.604231" lon="23.300642"><ele>1436.2</ele></trkpt>
      <trkpt lat="42.604192" lon="23.300777"><ele>1435.3</ele></trkpt>
      <trkpt lat="42.603880" lon="23.301336"><ele>1437.1</ele></trkpt>
      <trkpt lat="42.603521" lon="23.301803"><ele>1438.7</ele></trkpt>
      <trkpt lat="42.603315" lon="23.301971"><ele>1443.2</ele></trkpt>
      <trkpt lat="42.602496" lon="23.302470"><ele>1471.0</ele></trkpt>
      <trkpt lat="42.601934" lon="23.302676"><ele>1470.4</ele></trkpt>
      <trkpt lat="42.601563" lon="23.302754"><ele>1473.5</ele></trkpt>
      <trkpt lat="42.600811" lon="23.303282"><ele>1479.5</ele></trkpt>
      <trkpt lat="42.600579" lon="23.303340"><ele>1479.6</ele></trkpt>
      <trkpt lat="42.600316" lon="23.303303"><ele>1480.1</ele></trkpt>
      <trkpt lat="42.599970" lon="23.303165"><ele>1482.0</ele></trkpt>
      <trkpt lat="42.599827" lon="23.303123"><ele>1483.4</ele></trkpt>
      <trkpt lat="42.599716" lon="23.303128"><ele>1485.5</ele></trkpt>
      <trkpt lat="42.599633" lon="23.303175"><ele>1486.6</ele></trkpt>
      <trkpt lat="42.599456" lon="23.303424"><ele>1477.0</ele></trkpt>
      <trkpt lat="42.599209" lon="23.303941"><ele>1480.3</ele></trkpt>
      <trkpt lat="42.598839" lon="23.304546"><ele>1486.9</ele></trkpt>
      <trkpt lat="42.598197" lon="23.305385"><ele>1500.6</ele></trkpt>
      <trkpt lat="42.597462" lon="23.306118"><ele>1506.8</ele></trkpt>
      <trkpt lat="42.596842" lon="23.306858"><ele>1506.5</ele></trkpt>
      <trkpt lat="42.595878" lon="23.308292"><ele>1530.5</ele></trkpt>
      <trkpt lat="42.595382" lon="23.309255"><ele>1530.0</ele></trkpt>
      <trkpt lat="42.594351" lon="23.311649"><ele>1541.8</ele></trkpt>
      <trkpt lat="42.594219" lon="23.311867"><ele>1540.3</ele></trkpt>
      <trkpt lat="42.594044" lon="23.312026"><ele>1541.5</ele></trkpt>
      <trkpt lat="42.593877" lon="23.312111"><ele>1549.0</ele></trkpt>
      <trkpt lat="42.593663" lon="23.312200"><ele>1553.9</ele></trkpt>
      <trkpt lat="42.593118" lon="23.312357"><ele>1554.3</ele></trkpt>
      <trkpt lat="42.592699" lon="23.312401"><ele>1555.9</ele></trkpt>
      <trkpt lat="42.592549" lon="23.312379"><ele>1561.0</ele></trkpt>
      <trkpt lat="42.592259" lon="23.312333"><ele>1572.1</ele></trkpt>
      <trkpt lat="42.591766" lon="23.312382"><ele>1573.2</ele></trkpt>
      <trkpt lat="42.591508" lon="23.312374"><ele>1573.7</ele></trkpt>
      <trkpt lat="42.591141" lon="23.312330"><ele>1575.0</ele></trkpt>
      <trkpt lat="42.590788" lon="23.312245"><ele>1575.7</ele></trkpt>
      <trkpt lat="42.590643" lon="23.312154"><ele>1576.0</ele></trkpt>
      <trkpt lat="42.590361" lon="23.311926"><ele>1576.6</ele></trkpt>
      <trkpt lat="42.590277" lon="23.311904"><ele>1576.7</ele></trkpt>
      <trkpt lat="42.589813" lon="23.311971"><ele>1577.1</ele></trkpt>
      <trkpt lat="42.589565" lon="23.311916"><ele>1577.2</ele></trkpt>
      <trkpt lat="42.589402" lon="23.311841"><ele>1576.0</ele></trkpt>
      <trkpt lat="42.589132" lon="23.311664"><ele>1572.0</ele></trkpt>
      <trkpt lat="42.588950" lon="23.311514"><ele>1575.0</ele></trkpt>
      <trkpt lat="42.588893" lon="23.311431"><ele>1574.7</ele></trkpt>
      <trkpt lat="42.588835" lon="23.311293"><ele>1574.4</ele></trkpt>
      <trkpt lat="42.588523" lon="23.310037"><ele>1580.1</ele></trkpt>
      <trkpt lat="42.588456" lon="23.309522"><ele>1589.0</ele></trkpt>
      <trkpt lat="42.588390" lon="23.308768"><ele>1594.0</ele></trkpt>
      <trkpt lat="42.588373" lon="23.308126"><ele>1599.1</ele></trkpt>
      <trkpt lat="42.588401" lon="23.307403"><ele>1602.8</ele></trkpt>
      <trkpt lat="42.588482" lon="23.306563"><ele>1607.8</ele></trkpt>
      <trkpt lat="42.588662" lon="23.305630"><ele>1612.9</ele></trkpt>
      <trkpt lat="42.588674" lon="23.305171"><ele>1615.3</ele></trkpt>
      <trkpt lat="42.588593" lon="23.304318"><ele>1619.8</ele></trkpt>
      <trkpt lat="42.588591" lon="23.304128"><ele>1620.4</ele></trkpt>
      <trkpt lat="42.588626" lon="23.303760"><ele>1622.4</ele></trkpt>
      <trkpt lat="42.588731" lon="23.303107"><ele>1627.7</ele></trkpt>
      <trkpt lat="42.588751" lon="23.302895"><ele>1628.8</ele></trkpt>
      <trkpt lat="42.588753" lon="23.301917"><ele>1634.4</ele></trkpt>
      <trkpt lat="42.588735" lon="23.301435"><ele>1635.9</ele></trkpt>
      <trkpt lat="42.588750" lon="23.301232"><ele>1636.7</ele></trkpt>
      <trkpt lat="42.588878" lon="23.300207"><ele>1645.0</ele></trkpt>
      <trkpt lat="42.588990" lon="23.299091"><ele>1654.6</ele></trkpt>
      <trkpt lat="42.588946" lon="23.298898"><ele>1656.2</ele></trkpt>
      <trkpt lat="42.588891" lon="23.298791"><ele>1657.5</ele></trkpt>
      <trkpt lat="42.588331" lon="23.297974"><ele>1665.2</ele></trkpt>
      <trkpt lat="42.588226" lon="23.297710"><ele>1665.4</ele></trkpt>
      <trkpt lat="42.588170" lon="23.297411"><ele>1669.3</ele></trkpt>
      <trkpt lat="42.588138" lon="23.297320"><ele>1671.5</ele></trkpt>
      <trkpt lat="42.588095" lon="23.297254"><ele>1673.9</ele></trkpt>
      <trkpt lat="42.587991" lon="23.297193"><ele>1679.0</ele></trkpt>
      <trkpt lat="42.587910" lon="23.297211"><ele>1679.0</ele></trkpt>
      <trkpt lat="42.587441" lon="23.297619"><ele>1665.0</ele></trkpt>
      <trkpt lat="42.587326" lon="23.297653"><ele>1674.0</ele></trkpt>
      <trkpt lat="42.587147" lon="23.297640"><ele>1672.9</ele></trkpt>
      <trkpt lat="42.587070" lon="23.297600"><ele>1672.4</ele></trkpt>
      <trkpt lat="42.586962" lon="23.297437"><ele>1672.6</ele></trkpt>
      <trkpt lat="42.586938" lon="23.297207"><ele>1673.7</ele></trkpt>
      <trkpt lat="42.586975" lon="23.296991"><ele>1674.7</ele></trkpt>
      <trkpt lat="42.587084" lon="23.296753"><ele>1675.6</ele></trkpt>
      <trkpt lat="42.587207" lon="23.296599"><ele>1694.0</ele></trkpt>
      <trkpt lat="42.587411" lon="23.296486"><ele>1694.8</ele></trkpt>
      <trkpt lat="42.587896" lon="23.296369"><ele>1695.2</ele></trkpt>
      <trkpt lat="42.588016" lon="23.296379"><ele>1695.1</ele></trkpt>
      <trkpt lat="42.588083" lon="23.296415"><ele>1695.5</ele></trkpt>
      <trkpt lat="42.588154" lon="23.296484"><ele>1695.8</ele></trkpt>
      <trkpt lat="42.589060" lon="23.297431"><ele>1687.0</ele></trkpt>
      <trkpt lat="42.589950" lon="23.298276"><ele>1698.2</ele></trkpt>
      <trkpt lat="42.590152" lon="23.298507"><ele>1701.2</ele></trkpt>
      <trkpt lat="42.590502" lon="23.299004"><ele>1705.3</ele></trkpt>
      <trkpt lat="42.590740" lon="23.299382"><ele>1706.2</ele></trkpt>
      <trkpt lat="42.591096" lon="23.299871"><ele>1710.0</ele></trkpt>
      <trkpt lat="42.591276" lon="23.300034"><ele>1713.0</ele></trkpt>
      <trkpt lat="42.591443" lon="23.300166"><ele>1713.5</ele></trkpt>
      <trkpt lat="42.591510" lon="23.300190"><ele>1713.4</ele></trkpt>
      <trkpt lat="42.591618" lon="23.300206"><ele>1713.4</ele></trkpt>
      <trkpt lat="42.591813" lon="23.300170"><ele>1715.0</ele></trkpt>
      <trkpt lat="42.591907" lon="23.300108"><ele>1721.7</ele></trkpt>
      <trkpt lat="42.591998" lon="23.300015"><ele>1720.9</ele></trkpt>
      <trkpt lat="42.592073" lon="23.299897"><ele>1721.7</ele></trkpt>
      <trkpt lat="42.592129" lon="23.299758"><ele>1724.5</ele></trkpt>
      <trkpt lat="42.592165" lon="23.299617"><ele>1724.9</ele></trkpt>
      <trkpt lat="42.592203" lon="23.299371"><ele>1725.2</ele></trkpt>
      <trkpt lat="42.592329" lon="23.298043"><ele>1743.5</ele></trkpt>
      <trkpt lat="42.592459" lon="23.296902"><ele>1749.9</ele></trkpt>
      <trkpt lat="42.592464" lon="23.296693"><ele>1749.4</ele></trkpt>
      <trkpt lat="42.592443" lon="23.296572"><ele>1750.5</ele></trkpt>
      <trkpt lat="42.592377" lon="23.296424"><ele>1752.3</ele></trkpt>
      <trkpt lat="42.592284" lon="23.296350"><ele>1759.0</ele></trkpt>
      <trkpt lat="42.592155" lon="23.296356"><ele>1759.0</ele></trkpt>
      <trkpt lat="42.591495" lon="23.296638"><ele>1768.0</ele></trkpt>
      <trkpt lat="42.591367" lon="23.296640"><ele>1761.4</ele></trkpt>
      <trkpt lat="42.590699" lon="23.296532"><ele>1761.2</ele></trkpt>
      <trkpt lat="42.590465" lon="23.296453"><ele>1760.0</ele></trkpt>
      <trkpt lat="42.590386" lon="23.296403"><ele>1759.4</ele></trkpt>
      <trkpt lat="42.590268" lon="23.296259"><ele>1758.9</ele></trkpt>
      <trkpt lat="42.590174" lon="23.296057"><ele>1757.3</ele></trkpt>
      <trkpt lat="42.590158" lon="23.295933"><ele>1757.1</ele></trkpt>
      <trkpt lat="42.590130" lon="23.295191"><ele>1762.1</ele></trkpt>
      <trkpt lat="42.590184" lon="23.294588"><ele>1766.2</ele></trkpt>
      <trkpt lat="42.590210" lon="23.294080"><ele>1771.8</ele></trkpt>
      <trkpt lat="42.590200" lon="23.293980"><ele>1772.0</ele></trkpt>
      <trkpt lat="42.590136" lon="23.293748"><ele>1773.0</ele></trkpt>
      <trkpt lat="42.589993" lon="23.293488"><ele>1773.0</ele></trkpt>
      <trkpt lat="42.589849" lon="23.293337"><ele>1772.8</ele></trkpt>
      <trkpt lat="42.589694" lon="23.293251"><ele>1774.3</ele></trkpt>
      <trkpt lat="42.588978" lon="23.292944"><ele>1782.0</ele></trkpt>
      <trkpt lat="42.588900" lon="23.292918"><ele>1782.0</ele></trkpt>
      <trkpt lat="42.588851" lon="23.292900"><ele>1782.0</ele></trkpt>
      <trkpt lat="42.588514" lon="23.292801"><ele>1782.0</ele></trkpt>
      <trkpt lat="42.588361" lon="23.292714"><ele>1782.6</ele></trkpt>
      <trkpt lat="42.588210" lon="23.292568"><ele>1780.7</ele></trkpt>
      <trkpt lat="42.587875" lon="23.292087"><ele>1782.7</ele></trkpt>
      <trkpt lat="42.587785" lon="23.291982"><ele>1783.1</ele></trkpt>
      <trkpt lat="42.587693" lon="23.291915"><ele>1784.0</ele></trkpt>
      <trkpt lat="42.587391" lon="23.291778"><ele>1783.9</ele></trkpt>
      <trkpt lat="42.586618" lon="23.291582"><ele>1791.2</ele></trkpt>
      <trkpt lat="42.585105" lon="23.291434"><ele>1804.0</ele></trkpt>
      <trkpt lat="42.584870" lon="23.291473"><ele>1810.0</ele></trkpt>
      <trkpt lat="42.584798" lon="23.291507"><ele>1803.4</ele></trkpt>
      <trkpt lat="42.584325" lon="23.291878"><ele>1801.4</ele></trkpt>
      <trkpt lat="42.584237" lon="23.291906"><ele>1796.0</ele></trkpt>
      <trkpt lat="42.583999" lon="23.291862"><ele>1807.0</ele></trkpt>
      <trkpt lat="42.583769" lon="23.291875"><ele>1807.0</ele></trkpt>
      <trkpt lat="42.583507" lon="23.291954"><ele>1807.0</ele></trkpt>
      <trkpt lat="42.583379" lon="23.292010"><ele>1807.0</ele></trkpt>
      <trkpt lat="42.583344" lon="23.292052"><ele>1807.0</ele></trkpt>
      <trkpt lat="42.583329" lon="23.292155"><ele>1807.7</ele></trkpt>
    </trkseg>
  </trk>
</gpx>
