<?xml version="1.0" encoding="UTF-8"?>
<gpx version="1.1" creator="Apex" xmlns="http://www.topografix.com/GPX/1/1">
  <metadata>
    <name>Mirovo to Dubravite</name>
  </metadata>
  <trk>
    <name>Mirovo to Dubravite</name>
    <trkseg>
      <trkpt lat="42.384149" lon="23.874861"><ele>657.2</ele></trkpt>
      <trkpt lat="42.383021" lon="23.875364"><ele>659.6</ele></trkpt>
      <trkpt lat="42.382453" lon="23.875617"><ele>661.7</ele></trkpt>
      <trkpt lat="42.382114" lon="23.875778"><ele>661.2</ele></trkpt>
      <trkpt lat="42.382057" lon="23.875805"><ele>661.2</ele></trkpt>
      <trkpt lat="42.381686" lon="23.875981"><ele>661.0</ele></trkpt>
      <trkpt lat="42.381261" lon="23.876156"><ele>661.0</ele></trkpt>
      <trkpt lat="42.380900" lon="23.876231"><ele>662.3</ele></trkpt>
      <trkpt lat="42.380561" lon="23.876286"><ele>664.8</ele></trkpt>
      <trkpt lat="42.379375" lon="23.876362"><ele>676.1</ele></trkpt>
      <trkpt lat="42.379129" lon="23.876377"><ele>678.1</ele></trkpt>
      <trkpt lat="42.378351" lon="23.876449"><ele>684.5</ele></trkpt>
      <trkpt lat="42.377400" lon="23.876561"><ele>690.0</ele></trkpt>
      <trkpt lat="42.376842" lon="23.876758"><ele>693.0</ele></trkpt>
      <trkpt lat="42.376221" lon="23.877187"><ele>695.9</ele></trkpt>
      <trkpt lat="42.375517" lon="23.877799"><ele>698.1</ele></trkpt>
      <trkpt lat="42.375207" lon="23.878067"><ele>697.4</ele></trkpt>
      <trkpt lat="42.374850" lon="23.878384"><ele>697.5</ele></trkpt>
      <trkpt lat="42.374449" lon="23.878824"><ele>697.6</ele></trkpt>
      <trkpt lat="42.373706" lon="23.879713"><ele>695.6</ele></trkpt>
      <trkpt lat="42.373558" lon="23.879891"><ele>695.1</ele></trkpt>
      <trkpt lat="42.372828" lon="23.880798"><ele>693.4</ele></trkpt>
      <trkpt lat="42.372276" lon="23.881456"><ele>689.8</ele></trkpt>
      <trkpt lat="42.371684" lon="23.882171"><ele>689.3</ele></trkpt>
      <trkpt lat="42.371101" lon="23.882926"><ele>688.0</ele></trkpt>
      <trkpt lat="42.370530" lon="23.883521"><ele>682.6</ele></trkpt>
      <trkpt lat="42.369870" lon="23.884057"><ele>676.5</ele></trkpt>
      <trkpt lat="42.368745" lon="23.884925"><ele>675.3</ele></trkpt>
      <trkpt lat="42.368190" lon="23.885332"><ele>672.5</ele></trkpt>
      <trkpt lat="42.367925" lon="23.885477"><ele>670.6</ele></trkpt>
      <trkpt lat="42.367710" lon="23.885558"><ele>669.4</ele></trkpt>
      <trkpt lat="42.367489" lon="23.885569"><ele>668.6</ele></trkpt>
      <trkpt lat="42.367255" lon="23.885518"><ele>668.9</ele></trkpt>
      <trkpt lat="42.366881" lon="23.885311"><ele>673.6</ele></trkpt>
      <trkpt lat="42.366400" lon="23.884930"><ele>674.6</ele></trkpt>
      <trkpt lat="42.366134" lon="23.884784"><ele>671.9</ele></trkpt>
      <trkpt lat="42.365889" lon="23.884704"><ele>670.6</ele></trkpt>
      <trkpt lat="42.365481" lon="23.884673"><ele>669.2</ele></trkpt>
      <trkpt lat="42.364980" lon="23.884648"><ele>666.6</ele></trkpt>
      <trkpt lat="42.364560" lon="23.884551"><ele>661.3</ele></trkpt>
      <trkpt lat="42.363620" lon="23.884165"><ele>660.8</ele></trkpt>
      <trkpt lat="42.363328" lon="23.883990"><ele>659.0</ele></trkpt>
      <trkpt lat="42.362950" lon="23.883664"><ele>657.5</ele></trkpt>
      <trkpt lat="42.362225" lon="23.882916"><ele>657.8</ele></trkpt>
      <trkpt lat="42.361890" lon="23.882613"><ele>655.7</ele></trkpt>
      <trkpt lat="42.361623" lon="23.882483"><ele>652.3</ele></trkpt>
      <trkpt lat="42.361239" lon="23.882379"><ele>647.4</ele></trkpt>
      <trkpt lat="42.360731" lon="23.882299"><ele>646.7</ele></trkpt>
      <trkpt lat="42.360306" lon="23.882189"><ele>644.8</ele></trkpt>
      <trkpt lat="42.359808" lon="23.881955"><ele>641.0</ele></trkpt>
      <trkpt lat="42.358991" lon="23.881565"><ele>637.4</ele></trkpt>
      <trkpt lat="42.358587" lon="23.881391"><ele>636.4</ele></trkpt>
      <trkpt lat="42.358195" lon="23.881345"><ele>634.5</ele></trkpt>
      <trkpt lat="42.357686" lon="23.881378"><ele>632.1</ele></trkpt>
      <trkpt lat="42.357116" lon="23.881516"><ele>628.7</ele></trkpt>
      <trkpt lat="42.356697" lon="23.881708"><ele>628.4</ele></trkpt>
      <trkpt lat="42.356136" lon="23.882067"><ele>626.7</ele></trkpt>
      <trkpt lat="42.355824" lon="23.882221"><ele>624.7</ele></trkpt>
      <trkpt lat="42.355504" lon="23.882284"><ele>623.7</ele></trkpt>
      <trkpt lat="42.354483" lon="23.882279"><ele>619.6</ele></trkpt>
      <trkpt lat="42.353346" lon="23.882303"><ele>619.8</ele></trkpt>
      <trkpt lat="42.352648" lon="23.882423"><ele>619.0</ele></trkpt>
      <trkpt lat="42.352112" lon="23.882417"><ele>615.6</ele></trkpt>
      <trkpt lat="42.351508" lon="23.882342"><ele>612.4</ele></trkpt>
      <trkpt lat="42.350796" lon="23.882217"><ele>608.3</ele></trkpt>
      <trkpt lat="42.349952" lon="23.882217"><ele>609.5</ele></trkpt>
      <trkpt lat="42.349583" lon="23.882275"><ele>608.2</ele></trkpt>
      <trkpt lat="42.349288" lon="23.882363"><ele>606.5</ele></trkpt>
      <trkpt lat="42.348708" lon="23.882684"><ele>604.1</ele></trkpt>
      <trkpt lat="42.348032" lon="23.883135"><ele>599.0</ele></trkpt>
      <trkpt lat="42.347743" lon="23.883243"><ele>599.2</ele></trkpt>
      <trkpt lat="42.347402" lon="23.883325"><ele>599.5</ele></trkpt>
      <trkpt lat="42.347004" lon="23.883368"><ele>598.7</ele></trkpt>
      <trkpt lat="42.346622" lon="23.883410"><ele>595.8</ele></trkpt>
      <trkpt lat="42.346253" lon="23.883389"><ele>596.1</ele></trkpt>
      <trkpt lat="42.345809" lon="23.883272"><ele>596.6</ele></trkpt>
      <trkpt lat="42.345176" lon="23.882955"><ele>594.9</ele></trkpt>
      <trkpt lat="42.344036" lon="23.882463"><ele>593.7</ele></trkpt>
      <trkpt lat="42.343543" lon="23.882171"><ele>591.9</ele></trkpt>
      <trkpt lat="42.342321" lon="23.881342"><ele>580.9</ele></trkpt>
      <trkpt lat="42.341837" lon="23.881053"><ele>581.1</ele></trkpt>
      <trkpt lat="42.341652" lon="23.880965"><ele>581.3</ele></trkpt>
      <trkpt lat="42.341325" lon="23.880810"><ele>580.0</ele></trkpt>
      <trkpt lat="42.339166" lon="23.879841"><ele>574.3</ele></trkpt>
      <trkpt lat="42.338999" lon="23.879779"><ele>573.1</ele></trkpt>
      <trkpt lat="42.338819" lon="23.879732"><ele>571.7</ele></trkpt>
      <trkpt lat="42.338639" lon="23.879708"><ele>570.6</ele></trkpt>
      <trkpt lat="42.338397" lon="23.879699"><ele>569.5</ele></trkpt>
      <trkpt lat="42.337450" lon="23.879667"><ele>565.7</ele></trkpt>
      <trkpt lat="42.337237" lon="23.879652"><ele>565.1</ele></trkpt>
      <trkpt lat="42.336885" lon="23.879637"><ele>564.8</ele></trkpt>
      <trkpt lat="42.336800" lon="23.879633"><ele>564.8</ele></trkpt>
      <trkpt lat="42.336642" lon="23.879621"><ele>564.9</ele></trkpt>
      <trkpt lat="42.336511" lon="23.879603"><ele>564.7</ele></trkpt>
      <trkpt lat="42.336350" lon="23.879559"><ele>564.3</ele></trkpt>
      <trkpt lat="42.336224" lon="23.879501"><ele>563.7</ele></trkpt>
      <trkpt lat="42.336086" lon="23.879422"><ele>563.2</ele></trkpt>
      <trkpt lat="42.335943" lon="23.879285"><ele>562.7</ele></trkpt>
      <trkpt lat="42.335837" lon="23.879148"><ele>562.6</ele></trkpt>
      <trkpt lat="42.335739" lon="23.878987"><ele>562.5</ele></trkpt>
      <trkpt lat="42.335334" lon="23.878172"><ele>562.8</ele></trkpt>
      <trkpt lat="42.335114" lon="23.877795"><ele>562.1</ele></trkpt>
      <trkpt lat="42.334903" lon="23.877505"><ele>560.7</ele></trkpt>
      <trkpt lat="42.334817" lon="23.877391"><ele>560.2</ele></trkpt>
      <trkpt lat="42.334105" lon="23.876447"><ele>553.4</ele></trkpt>
      <trkpt lat="42.333896" lon="23.876165"><ele>552.0</ele></trkpt>
      <trkpt lat="42.333805" lon="23.875997"><ele>551.5</ele></trkpt>
      <trkpt lat="42.333752" lon="23.875843"><ele>551.8</ele></trkpt>
      <trkpt lat="42.333672" lon="23.875520"><ele>552.5</ele></trkpt>
      <trkpt lat="42.333521" lon="23.874885"><ele>553.2</ele></trkpt>
      <trkpt lat="42.333490" lon="23.874765"><ele>553.3</ele></trkpt>
      <trkpt lat="42.333269" lon="23.873942"><ele>551.8</ele></trkpt>
      <trkpt lat="42.333186" lon="23.873591"><ele>550.1</ele></trkpt>
      <trkpt lat="42.333140" lon="23.873397"><ele>550.3</ele></trkpt>
      <trkpt lat="42.333102" lon="23.873269"><ele>550.4</ele></trkpt>
      <trkpt lat="42.333065" lon="23.873129"><ele>550.1</ele></trkpt>
      <trkpt lat="42.333033" lon="23.873034"><ele>549.9</ele></trkpt>
      <trkpt lat="42.332970" lon="23.872909"><ele>549.6</ele></trkpt>
      <trkpt lat="42.332905" lon="23.872821"><ele>549.5</ele></trkpt>
      <trkpt lat="42.332883" lon="23.872791"><ele>549.4</ele></trkpt>
      <trkpt lat="42.332806" lon="23.872684"><ele>549.2</ele></trkpt>
      <trkpt lat="42.332640" lon="23.872497"><ele>548.5</ele></trkpt>
      <trkpt lat="42.332542" lon="23.872345"><ele>548.1</ele></trkpt>
      <trkpt lat="42.332457" lon="23.872136"><ele>547.7</ele></trkpt>
      <trkpt lat="42.332375" lon="23.871850"><ele>547.7</ele></trkpt>
      <trkpt lat="42.332314" lon="23.871567"><ele>547.9</ele></trkpt>
      <trkpt lat="42.332277" lon="23.871414"><ele>548.0</ele></trkpt>
      <trkpt lat="42.332235" lon="23.871282"><ele>548.3</ele></trkpt>
      <trkpt lat="42.332183" lon="23.871176"><ele>548.7</ele></trkpt>
      <trkpt lat="42.332113" lon="23.871080"><ele>548.8</ele></trkpt>
      <trkpt lat="42.332031" lon="23.870996"><ele>548.7</ele></trkpt>
      <trkpt lat="42.331929" lon="23.870942"><ele>548.5</ele></trkpt>
      <trkpt lat="42.331805" lon="23.870943"><ele>548.3</ele></trkpt>
      <trkpt lat="42.331536" lon="23.870963"><ele>548.1</ele></trkpt>
      <trkpt lat="42.330444" lon="23.871107"><ele>543.9</ele></trkpt>
      <trkpt lat="42.329670" lon="23.871188"><ele>538.2</ele></trkpt>
      <trkpt lat="42.329396" lon="23.871190"><ele>536.8</ele></trkpt>
      <trkpt lat="42.329252" lon="23.871173"><ele>536.0</ele></trkpt>
      <trkpt lat="42.329101" lon="23.871154"><ele>535.4</ele></trkpt>
      <trkpt lat="42.328768" lon="23.871072"><ele>534.7</ele></trkpt>
      <trkpt lat="42.327781" lon="23.870791"><ele>539.3</ele></trkpt>
      <trkpt lat="42.327708" lon="23.870767"><ele>538.9</ele></trkpt>
      <trkpt lat="42.327620" lon="23.870733"><ele>538.4</ele></trkpt>
      <trkpt lat="42.327508" lon="23.870681"><ele>537.1</ele></trkpt>
      <trkpt lat="42.327297" lon="23.870573"><ele>535.1</ele></trkpt>
      <trkpt lat="42.327114" lon="23.870469"><ele>534.2</ele></trkpt>
      <trkpt lat="42.326763" lon="23.870270"><ele>534.9</ele></trkpt>
      <trkpt lat="42.326350" lon="23.869999"><ele>533.2</ele></trkpt>
      <trkpt lat="42.326211" lon="23.869897"><ele>532.0</ele></trkpt>
      <trkpt lat="42.326088" lon="23.869767"><ele>531.2</ele></trkpt>
      <trkpt lat="42.325986" lon="23.869508"><ele>530.6</ele></trkpt>
      <trkpt lat="42.325803" lon="23.868773"><ele>530.6</ele></trkpt>
      <trkpt lat="42.325771" lon="23.868640"><ele>530.7</ele></trkpt>
      <trkpt lat="42.325538" lon="23.867702"><ele>531.9</ele></trkpt>
      <trkpt lat="42.325444" lon="23.867421"><ele>531.2</ele></trkpt>
      <trkpt lat="42.325366" lon="23.867262"><ele>530.4</ele></trkpt>
      <trkpt lat="42.325237" lon="23.867090"><ele>529.9</ele></trkpt>
      <trkpt lat="42.325094" lon="23.866968"><ele>529.7</ele></trkpt>
      <trkpt lat="42.324376" lon="23.866373"><ele>525.3</ele></trkpt>
      <trkpt lat="42.324241" lon="23.866229"><ele>523.7</ele></trkpt>
      <trkpt lat="42.324109" lon="23.866060"><ele>522.9</ele></trkpt>
      <trkpt lat="42.323877" lon="23.865623"><ele>522.2</ele></trkpt>
      <trkpt lat="42.323741" lon="23.865368"><ele>522.2</ele></trkpt>
      <trkpt lat="42.323575" lon="23.865060"><ele>522.9</ele></trkpt>
      <trkpt lat="42.323305" lon="23.864575"><ele>524.9</ele></trkpt>
      <trkpt lat="42.323172" lon="23.864364"><ele>525.4</ele></trkpt>
      <trkpt lat="42.323005" lon="23.864188"><ele>525.7</ele></trkpt>
      <trkpt lat="42.322733" lon="23.863945"><ele>524.6</ele></trkpt>
      <trkpt lat="42.322014" lon="23.863298"><ele>522.6</ele></trkpt>
      <trkpt lat="42.321661" lon="23.863025"><ele>520.3</ele></trkpt>
      <trkpt lat="42.321348" lon="23.862817"><ele>518.7</ele></trkpt>
      <trkpt lat="42.321032" lon="23.862599"><ele>517.7</ele></trkpt>
      <trkpt lat="42.321000" lon="23.862579"><ele>517.6</ele></trkpt>
      <trkpt lat="42.320544" lon="23.862247"><ele>518.0</ele></trkpt>
      <trkpt lat="42.320447" lon="23.862169"><ele>518.3</ele></trkpt>
      <trkpt lat="42.320347" lon="23.862075"><ele>517.7</ele></trkpt>
      <trkpt lat="42.320252" lon="23.861964"><ele>517.0</ele></trkpt>
      <trkpt lat="42.320171" lon="23.861846"><ele>516.3</ele></trkpt>
      <trkpt lat="42.319800" lon="23.861278"><ele>514.9</ele></trkpt>
      <trkpt lat="42.319732" lon="23.861173"><ele>515.0</ele></trkpt>
      <trkpt lat="42.319648" lon="23.861077"><ele>515.0</ele></trkpt>
      <trkpt lat="42.319541" lon="23.860997"><ele>514.9</ele></trkpt>
      <trkpt lat="42.318762" lon="23.860542"><ele>511.5</ele></trkpt>
      <trkpt lat="42.318673" lon="23.860473"><ele>511.2</ele></trkpt>
      <trkpt lat="42.318572" lon="23.860367"><ele>510.7</ele></trkpt>
      <trkpt lat="42.318435" lon="23.860170"><ele>510.1</ele></trkpt>
      <trkpt lat="42.317955" lon="23.859361"><ele>510.6</ele></trkpt>
      <trkpt lat="42.317823" lon="23.859139"><ele>511.3</ele></trkpt>
      <trkpt lat="42.317692" lon="23.858921"><ele>511.9</ele></trkpt>
      <trkpt lat="42.317543" lon="23.858715"><ele>512.1</ele></trkpt>
      <trkpt lat="42.317390" lon="23.858518"><ele>511.8</ele></trkpt>
      <trkpt lat="42.316957" lon="23.858025"><ele>508.6</ele></trkpt>
      <trkpt lat="42.316752" lon="23.857803"><ele>507.5</ele></trkpt>
      <trkpt lat="42.316537" lon="23.857616"><ele>507.6</ele></trkpt>
      <trkpt lat="42.316321" lon="23.857467"><ele>508.3</ele></trkpt>
      <trkpt lat="42.316106" lon="23.857333"><ele>508.7</ele></trkpt>
      <trkpt lat="42.315889" lon="23.857198"><ele>508.7</ele></trkpt>
      <trkpt lat="42.315657" lon="23.857081"><ele>508.9</ele></trkpt>
      <trkpt lat="42.315395" lon="23.856975"><ele>509.0</ele></trkpt>
      <trkpt lat="42.315124" lon="23.856885"><ele>509.1</ele></trkpt>
      <trkpt lat="42.314611" lon="23.856766"><ele>509.0</ele></trkpt>
      <trkpt lat="42.314412" lon="23.856724"><ele>509.0</ele></trkpt>
      <trkpt lat="42.314119" lon="23.856687"><ele>509.2</ele></trkpt>
      <trkpt lat="42.313981" lon="23.856684"><ele>509.5</ele></trkpt>
      <trkpt lat="42.313896" lon="23.856688"><ele>509.7</ele></trkpt>
      <trkpt lat="42.313557" lon="23.856706"><ele>509.8</ele></trkpt>
      <trkpt lat="42.313278" lon="23.856760"><ele>509.1</ele></trkpt>
      <trkpt lat="42.312959" lon="23.856848"><ele>508.6</ele></trkpt>
      <trkpt lat="42.312817" lon="23.856893"><ele>508.6</ele></trkpt>
      <trkpt lat="42.312320" lon="23.857097"><ele>508.6</ele></trkpt>
      <trkpt lat="42.311956" lon="23.857271"><ele>508.8</ele></trkpt>
      <trkpt lat="42.311618" lon="23.857468"><ele>508.7</ele></trkpt>
      <trkpt lat="42.310918" lon="23.858059"><ele>507.2</ele></trkpt>
      <trkpt lat="42.310560" lon="23.858372"><ele>506.8</ele></trkpt>
      <trkpt lat="42.309287" lon="23.859490"><ele>506.2</ele></trkpt>
      <trkpt lat="42.308466" lon="23.860168"><ele>506.9</ele></trkpt>
      <trkpt lat="42.306901" lon="23.861462"><ele>509.5</ele></trkpt>
      <trkpt lat="42.306590" lon="23.861725"><ele>508.9</ele></trkpt>
      <trkpt lat="42.305766" lon="23.862545"><ele>508.0</ele></trkpt>
      <trkpt lat="42.305557" lon="23.862788"><ele>507.2</ele></trkpt>
      <trkpt lat="42.305362" lon="23.863091"><ele>506.5</ele></trkpt>
      <trkpt lat="42.305160" lon="23.863424"><ele>506.2</ele></trkpt>
      <trkpt lat="42.305100" lon="23.863525"><ele>506.1</ele></trkpt>
      <trkpt lat="42.304726" lon="23.864126"><ele>505.2</ele></trkpt>
      <trkpt lat="42.303977" lon="23.865321"><ele>504.7</ele></trkpt>
      <trkpt lat="42.303704" lon="23.865765"><ele>504.0</ele></trkpt>
      <trkpt lat="42.303420" lon="23.866219"><ele>504.2</ele></trkpt>
      <trkpt lat="42.302642" lon="23.867473"><ele>502.0</ele></trkpt>
      <trkpt lat="42.302265" lon="23.868072"><ele>500.6</ele></trkpt>
      <trkpt lat="42.301987" lon="23.868524"><ele>499.6</ele></trkpt>
      <trkpt lat="42.301103" lon="23.869961"><ele>494.7</ele></trkpt>
      <trkpt lat="42.300886" lon="23.870287"><ele>493.2</ele></trkpt>
      <trkpt lat="42.300658" lon="23.870603"><ele>493.0</ele></trkpt>
      <trkpt lat="42.300403" lon="23.870909"><ele>492.6</ele></trkpt>
      <trkpt lat="42.300133" lon="23.871211"><ele>492.2</ele></trkpt>
      <trkpt lat="42.299744" lon="23.871569"><ele>492.6</ele></trkpt>
      <trkpt lat="42.299091" lon="23.872081"><ele>491.7</ele></trkpt>
      <trkpt lat="42.298445" lon="23.872471"><ele>488.8</ele></trkpt>
      <trkpt lat="42.296991" lon="23.873251"><ele>483.8</ele></trkpt>
      <trkpt lat="42.296785" lon="23.873406"><ele>482.6</ele></trkpt>
      <trkpt lat="42.296490" lon="23.873666"><ele>481.0</ele></trkpt>
      <trkpt lat="42.296336" lon="23.873806"><ele>480.8</ele></trkpt>
      <trkpt lat="42.296188" lon="23.873967"><ele>480.9</ele></trkpt>
      <trkpt lat="42.296050" lon="23.874133"><ele>481.2</ele></trkpt>
      <trkpt lat="42.295937" lon="23.874287"><ele>482.2</ele></trkpt>
      <trkpt lat="42.295377" lon="23.875085"><ele>483.9</ele></trkpt>
      <trkpt lat="42.294666" lon="23.876210"><ele>483.1</ele></trkpt>
      <trkpt lat="42.294460" lon="23.876535"><ele>482.9</ele></trkpt>
      <trkpt lat="42.294251" lon="23.876821"><ele>482.0</ele></trkpt>
      <trkpt lat="42.294041" lon="23.877076"><ele>480.6</ele></trkpt>
      <trkpt lat="42.293783" lon="23.877306"><ele>480.6</ele></trkpt>
      <trkpt lat="42.293397" lon="23.877638"><ele>477.6</ele></trkpt>
      <trkpt lat="42.292376" lon="23.878445"><ele>477.4</ele></trkpt>
      <trkpt lat="42.290449" lon="23.879960"><ele>476.8</ele></trkpt>
      <trkpt lat="42.290072" lon="23.880260"><ele>476.4</ele></trkpt>
      <trkpt lat="42.289693" lon="23.880544"><ele>476.1</ele></trkpt>
      <trkpt lat="42.289086" lon="23.880952"><ele>478.4</ele></trkpt>
      <trkpt lat="42.287803" lon="23.881850"><ele>474.7</ele></trkpt>
      <trkpt lat="42.287535" lon="23.882080"><ele>474.9</ele></trkpt>
      <trkpt lat="42.287267" lon="23.882347"><ele>474.8</ele></trkpt>
      <trkpt lat="42.286994" lon="23.882691"><ele>475.5</ele></trkpt>
      <trkpt lat="42.286724" lon="23.883129"><ele>475.2</ele></trkpt>
      <trkpt lat="42.286473" lon="23.883647"><ele>472.5</ele></trkpt>
      <trkpt lat="42.286075" lon="23.884483"><ele>472.8</ele></trkpt>
      <trkpt lat="42.285550" lon="23.885622"><ele>473.6</ele></trkpt>
      <trkpt lat="42.285200" lon="23.886390"><ele>472.1</ele></trkpt>
      <trkpt lat="42.284868" lon="23.887063"><ele>472.1</ele></trkpt>
      <trkpt lat="42.284732" lon="23.887330"><ele>471.7</ele></trkpt>
      <trkpt lat="42.284585" lon="23.887592"><ele>471.7</ele></trkpt>
      <trkpt lat="42.284390" lon="23.887877"><ele>472.2</ele></trkpt>
      <trkpt lat="42.284176" lon="23.888150"><ele>471.7</ele></trkpt>
      <trkpt lat="42.283946" lon="23.888427"><ele>471.2</ele></trkpt>
      <trkpt lat="42.283611" lon="23.888822"><ele>471.2</ele></trkpt>
      <trkpt lat="42.282824" lon="23.889719"><ele>469.7</ele></trkpt>
      <trkpt lat="42.282603" lon="23.889971"><ele>469.7</ele></trkpt>
      <trkpt lat="42.282211" lon="23.890420"><ele>468.6</ele></trkpt>
      <trkpt lat="42.280449" lon="23.892588"><ele>462.6</ele></trkpt>
      <trkpt lat="42.280076" lon="23.893047"><ele>463.5</ele></trkpt>
      <trkpt lat="42.279848" lon="23.893335"><ele>465.0</ele></trkpt>
      <trkpt lat="42.279624" lon="23.893634"><ele>465.1</ele></trkpt>
      <trkpt lat="42.279432" lon="23.893909"><ele>464.2</ele></trkpt>
      <trkpt lat="42.279220" lon="23.894246"><ele>463.0</ele></trkpt>
      <trkpt lat="42.278865" lon="23.894960"><ele>462.0</ele></trkpt>
      <trkpt lat="42.278282" lon="23.896125"><ele>459.4</ele></trkpt>
      <trkpt lat="42.278126" lon="23.896419"><ele>459.1</ele></trkpt>
      <trkpt lat="42.277858" lon="23.896935"><ele>459.8</ele></trkpt>
      <trkpt lat="42.277683" lon="23.897208"><ele>461.2</ele></trkpt>
      <trkpt lat="42.277624" lon="23.897299"><ele>461.8</ele></trkpt>
      <trkpt lat="42.277333" lon="23.897696"><ele>462.4</ele></trkpt>
      <trkpt lat="42.277205" lon="23.897868"><ele>461.7</ele></trkpt>
      <trkpt lat="42.277116" lon="23.897978"><ele>461.4</ele></trkpt>
      <trkpt lat="42.276854" lon="23.898260"><ele>462.0</ele></trkpt>
      <trkpt lat="42.276629" lon="23.898496"><ele>464.1</ele></trkpt>
      <trkpt lat="42.276380" lon="23.898714"><ele>465.3</ele></trkpt>
      <trkpt lat="42.276070" lon="23.898979"><ele>464.2</ele></trkpt>
      <trkpt lat="42.275781" lon="23.899180"><ele>463.8</ele></trkpt>
      <trkpt lat="42.275494" lon="23.899356"><ele>464.9</ele></trkpt>
      <trkpt lat="42.275183" lon="23.899522"><ele>467.3</ele></trkpt>
      <trkpt lat="42.274848" lon="23.899662"><ele>470.4</ele></trkpt>
      <trkpt lat="42.274530" lon="23.899783"><ele>473.3</ele></trkpt>
      <trkpt lat="42.274200" lon="23.899885"><ele>478.0</ele></trkpt>
      <trkpt lat="42.273767" lon="23.899968"><ele>481.5</ele></trkpt>
      <trkpt lat="42.273359" lon="23.900041"><ele>480.7</ele></trkpt>
      <trkpt lat="42.273121" lon="23.900072"><ele>480.7</ele></trkpt>
      <trkpt lat="42.272744" lon="23.900139"><ele>482.2</ele></trkpt>
      <trkpt lat="42.272467" lon="23.900213"><ele>482.8</ele></trkpt>
      <trkpt lat="42.272187" lon="23.900327"><ele>482.2</ele></trkpt>
      <trkpt lat="42.271786" lon="23.900498"><ele>481.1</ele></trkpt>
      <trkpt lat="42.271569" lon="23.900659"><ele>479.4</ele></trkpt>
      <trkpt lat="42.271338" lon="23.900870"><ele>477.0</ele></trkpt>
      <trkpt lat="42.271109" lon="23.901114"><ele>473.2</ele></trkpt>
      <trkpt lat="42.270857" lon="23.901436"><ele>467.2</ele></trkpt>
      <trkpt lat="42.270571" lon="23.901846"><ele>463.7</ele></trkpt>
      <trkpt lat="42.270226" lon="23.902343"><ele>466.5</ele></trkpt>
      <trkpt lat="42.270039" lon="23.902584"><ele>468.8</ele></trkpt>
      <trkpt lat="42.269849" lon="23.902792"><ele>469.2</ele></trkpt>
      <trkpt lat="42.269630" lon="23.903002"><ele>468.0</ele></trkpt>
      <trkpt lat="42.269385" lon="23.903198"><ele>466.6</ele></trkpt>
      <trkpt lat="42.269093" lon="23.903386"><ele>464.4</ele></trkpt>
      <trkpt lat="42.268823" lon="23.903522"><ele>462.9</ele></trkpt>
      <trkpt lat="42.268531" lon="23.903632"><ele>460.9</ele></trkpt>
      <trkpt lat="42.268243" lon="23.903700"><ele>458.1</ele></trkpt>
      <trkpt lat="42.267939" lon="23.903749"><ele>457.3</ele></trkpt>
      <trkpt lat="42.267678" lon="23.903777"><ele>457.1</ele></trkpt>
      <trkpt lat="42.267541" lon="23.903784"><ele>457.7</ele></trkpt>
      <trkpt lat="42.267401" lon="23.903789"><ele>458.3</ele></trkpt>
      <trkpt lat="42.266067" lon="23.903844"><ele>463.3</ele></trkpt>
      <trkpt lat="42.265835" lon="23.903842"><ele>462.8</ele></trkpt>
      <trkpt lat="42.265611" lon="23.903821"><ele>462.5</ele></trkpt>
      <trkpt lat="42.265418" lon="23.903792"><ele>462.2</ele></trkpt>
      <trkpt lat="42.265176" lon="23.903724"><ele>462.1</ele></trkpt>
      <trkpt lat="42.264769" lon="23.903576"><ele>463.0</ele></trkpt>
      <trkpt lat="42.264181" lon="23.903174"><ele>464.0</ele></trkpt>
      <trkpt lat="42.263760" lon="23.902886"><ele>463.6</ele></trkpt>
      <trkpt lat="42.263266" lon="23.902547"><ele>459.7</ele></trkpt>
      <trkpt lat="42.263077" lon="23.902420"><ele>457.1</ele></trkpt>
      <trkpt lat="42.262924" lon="23.902332"><ele>454.2</ele></trkpt>
      <trkpt lat="42.262789" lon="23.902274"><ele>451.6</ele></trkpt>
      <trkpt lat="42.262643" lon="23.902234"><ele>448.2</ele></trkpt>
      <trkpt lat="42.262508" lon="23.902219"><ele>445.2</ele></trkpt>
      <trkpt lat="42.262292" lon="23.902233"><ele>441.4</ele></trkpt>
      <trkpt lat="42.262109" lon="23.902274"><ele>440.4</ele></trkpt>
      <trkpt lat="42.261992" lon="23.902317"><ele>440.1</ele></trkpt>
      <trkpt lat="42.261870" lon="23.902376"><ele>439.6</ele></trkpt>
      <trkpt lat="42.261733" lon="23.902453"><ele>439.3</ele></trkpt>
      <trkpt lat="42.261603" lon="23.902544"><ele>439.7</ele></trkpt>
      <trkpt lat="42.261434" lon="23.902686"><ele>440.0</ele></trkpt>
      <trkpt lat="42.261209" lon="23.902943"><ele>440.5</ele></trkpt>
      <trkpt lat="42.261011" lon="23.903229"><ele>441.6</ele></trkpt>
      <trkpt lat="42.260929" lon="23.903382"><ele>442.2</ele></trkpt>
      <trkpt lat="42.260855" lon="23.903542"><ele>443.0</ele></trkpt>
      <trkpt lat="42.260785" lon="23.903719"><ele>443.9</ele></trkpt>
      <trkpt lat="42.260732" lon="23.904012"><ele>446.0</ele></trkpt>
      <trkpt lat="42.260698" lon="23.904302"><ele>446.9</ele></trkpt>
      <trkpt lat="42.260705" lon="23.904591"><ele>447.6</ele></trkpt>
      <trkpt lat="42.260746" lon="23.904963"><ele>448.4</ele></trkpt>
      <trkpt lat="42.260825" lon="23.905736"><ele>447.2</ele></trkpt>
      <trkpt lat="42.260814" lon="23.906124"><ele>446.8</ele></trkpt>
      <trkpt lat="42.260719" lon="23.906930"><ele>447.9</ele></trkpt>
      <trkpt lat="42.260693" lon="23.907151"><ele>446.8</ele></trkpt>
      <trkpt lat="42.260609" lon="23.907948"><ele>443.4</ele></trkpt>
      <trkpt lat="42.260555" lon="23.908463"><ele>442.3</ele></trkpt>
      <trkpt lat="42.260470" lon="23.909184"><ele>438.4</ele></trkpt>
      <trkpt lat="42.260411" lon="23.909443"><ele>439.0</ele></trkpt>
      <trkpt lat="42.260347" lon="23.909648"><ele>439.1</ele></trkpt>
      <trkpt lat="42.260167" lon="23.910078"><ele>437.9</ele></trkpt>
      <trkpt lat="42.259958" lon="23.910534"><ele>437.8</ele></trkpt>
      <trkpt lat="42.259820" lon="23.910769"><ele>438.6</ele></trkpt>
      <trkpt lat="42.259690" lon="23.910943"><ele>439.8</ele></trkpt>
      <trkpt lat="42.259552" lon="23.911090"><ele>441.0</ele></trkpt>
      <trkpt lat="42.259387" lon="23.911237"><ele>442.0</ele></trkpt>
      <trkpt lat="42.259172" lon="23.911371"><ele>442.4</ele></trkpt>
      <trkpt lat="42.258783" lon="23.911562"><ele>440.9</ele></trkpt>
      <trkpt lat="42.258439" lon="23.911717"><ele>434.7</ele></trkpt>
      <trkpt lat="42.258165" lon="23.911804"><ele>436.9</ele></trkpt>
      <trkpt lat="42.257870" lon="23.911848"><ele>443.5</ele></trkpt>
      <trkpt lat="42.257606" lon="23.911854"><ele>444.7</ele></trkpt>
      <trkpt lat="42.257203" lon="23.911819"><ele>437.2</ele></trkpt>
      <trkpt lat="42.256308" lon="23.911703"><ele>431.0</ele></trkpt>
      <trkpt lat="42.256089" lon="23.911679"><ele>429.5</ele></trkpt>
      <trkpt lat="42.255810" lon="23.911672"><ele>429.2</ele></trkpt>
      <trkpt lat="42.255548" lon="23.911692"><ele>430.2</ele></trkpt>
      <trkpt lat="42.255336" lon="23.911749"><ele>430.7</ele></trkpt>
      <trkpt lat="42.255154" lon="23.911832"><ele>430.4</ele></trkpt>
      <trkpt lat="42.254929" lon="23.911966"><ele>429.0</ele></trkpt>
      <trkpt lat="42.254707" lon="23.912164"><ele>427.7</ele></trkpt>
      <trkpt lat="42.254460" lon="23.912472"><ele>428.7</ele></trkpt>
      <trkpt lat="42.253707" lon="23.913588"><ele>431.6</ele></trkpt>
      <trkpt lat="42.252939" lon="23.914763"><ele>425.5</ele></trkpt>
      <trkpt lat="42.252428" lon="23.915730"><ele>424.2</ele></trkpt>
      <trkpt lat="42.252032" lon="23.916643"><ele>424.1</ele></trkpt>
      <trkpt lat="42.251927" lon="23.916883"><ele>425.0</ele></trkpt>
      <trkpt lat="42.251817" lon="23.917152"><ele>424.8</ele></trkpt>
      <trkpt lat="42.251742" lon="23.917365"><ele>424.3</ele></trkpt>
      <trkpt lat="42.251529" lon="23.918086"><ele>424.1</ele></trkpt>
      <trkpt lat="42.251360" lon="23.918507"><ele>426.3</ele></trkpt>
      <trkpt lat="42.251227" lon="23.918737"><ele>427.4</ele></trkpt>
      <trkpt lat="42.250957" lon="23.919086"><ele>428.0</ele></trkpt>
      <trkpt lat="42.250729" lon="23.919331"><ele>427.2</ele></trkpt>
      <trkpt lat="42.250277" lon="23.919843"><ele>428.3</ele></trkpt>
      <trkpt lat="42.250108" lon="23.920001"><ele>429.4</ele></trkpt>
      <trkpt lat="42.249734" lon="23.920293"><ele>426.7</ele></trkpt>
      <trkpt lat="42.249455" lon="23.920442"><ele>426.6</ele></trkpt>
      <trkpt lat="42.249209" lon="23.920551"><ele>427.4</ele></trkpt>
      <trkpt lat="42.248793" lon="23.920673"><ele>426.7</ele></trkpt>
      <trkpt lat="42.248472" lon="23.920786"><ele>424.6</ele></trkpt>
      <trkpt lat="42.248237" lon="23.920909"><ele>422.2</ele></trkpt>
      <trkpt lat="42.247896" lon="23.921176"><ele>418.5</ele></trkpt>
      <trkpt lat="42.247656" lon="23.921440"><ele>418.5</ele></trkpt>
      <trkpt lat="42.247383" lon="23.921836"><ele>420.8</ele></trkpt>
      <trkpt lat="42.247026" lon="23.922541"><ele>419.5</ele></trkpt>
      <trkpt lat="42.246876" lon="23.922971"><ele>417.5</ele></trkpt>
      <trkpt lat="42.246738" lon="23.923513"><ele>417.5</ele></trkpt>
      <trkpt lat="42.246536" lon="23.924480"><ele>414.0</ele></trkpt>
      <trkpt lat="42.246495" lon="23.924789"><ele>413.8</ele></trkpt>
      <trkpt lat="42.246489" lon="23.925013"><ele>414.7</ele></trkpt>
      <trkpt lat="42.246524" lon="23.925570"><ele>417.4</ele></trkpt>
      <trkpt lat="42.246599" lon="23.926583"><ele>416.8</ele></trkpt>
      <trkpt lat="42.246632" lon="23.927120"><ele>415.2</ele></trkpt>
      <trkpt lat="42.246613" lon="23.927423"><ele>413.4</ele></trkpt>
      <trkpt lat="42.246559" lon="23.927720"><ele>412.2</ele></trkpt>
      <trkpt lat="42.246494" lon="23.927939"><ele>412.0</ele></trkpt>
      <trkpt lat="42.246386" lon="23.928146"><ele>413.3</ele></trkpt>
      <trkpt lat="42.246094" lon="23.928576"><ele>414.4</ele></trkpt>
      <trkpt lat="42.244625" lon="23.930494"><ele>422.7</ele></trkpt>
      <trkpt lat="42.244483" lon="23.930729"><ele>423.0</ele></trkpt>
      <trkpt lat="42.244355" lon="23.931085"><ele>422.3</ele></trkpt>
      <trkpt lat="42.244277" lon="23.931484"><ele>420.7</ele></trkpt>
      <trkpt lat="42.244245" lon="23.931920"><ele>419.3</ele></trkpt>
      <trkpt lat="42.244293" lon="23.932274"><ele>419.3</ele></trkpt>
      <trkpt lat="42.244458" lon="23.932849"><ele>417.3</ele></trkpt>
      <trkpt lat="42.244979" lon="23.933990"><ele>411.5</ele></trkpt>
      <trkpt lat="42.245170" lon="23.934351"><ele>412.4</ele></trkpt>
      <trkpt lat="42.245429" lon="23.934736"><ele>411.9</ele></trkpt>
      <trkpt lat="42.245805" lon="23.935197"><ele>411.6</ele></trkpt>
      <trkpt lat="42.245928" lon="23.935348"><ele>412.1</ele></trkpt>
      <trkpt lat="42.246025" lon="23.935506"><ele>412.7</ele></trkpt>
      <trkpt lat="42.246132" lon="23.935826"><ele>414.0</ele></trkpt>
      <trkpt lat="42.246155" lon="23.936104"><ele>415.4</ele></trkpt>
      <trkpt lat="42.246160" lon="23.936278"><ele>414.5</ele></trkpt>
      <trkpt lat="42.246124" lon="23.936563"><ele>412.9</ele></trkpt>
      <trkpt lat="42.246061" lon="23.936847"><ele>411.1</ele></trkpt>
      <trkpt lat="42.245997" lon="23.937213"><ele>407.9</ele></trkpt>
      <trkpt lat="42.245896" lon="23.937667"><ele>407.3</ele></trkpt>
      <trkpt lat="42.245748" lon="23.938047"><ele>409.9</ele></trkpt>
      <trkpt lat="42.245612" lon="23.938299"><ele>411.5</ele></trkpt>
      <trkpt lat="42.245392" lon="23.938617"><ele>412.9</ele></trkpt>
      <trkpt lat="42.244595" lon="23.939658"><ele>410.2</ele></trkpt>
      <trkpt lat="42.244545" lon="23.939722"><ele>410.1</ele></trkpt>
      <trkpt lat="42.243913" lon="23.940511"><ele>409.7</ele></trkpt>
      <trkpt lat="42.243644" lon="23.940891"><ele>409.6</ele></trkpt>
      <trkpt lat="42.243318" lon="23.941403"><ele>410.3</ele></trkpt>
      <trkpt lat="42.242841" lon="23.942248"><ele>410.5</ele></trkpt>
      <trkpt lat="42.242588" lon="23.942701"><ele>410.8</ele></trkpt>
      <trkpt lat="42.242089" lon="23.943621"><ele>403.8</ele></trkpt>
      <trkpt lat="42.241875" lon="23.943970"><ele>402.6</ele></trkpt>
      <trkpt lat="42.241463" lon="23.944533"><ele>401.6</ele></trkpt>
      <trkpt lat="42.241233" lon="23.944775"><ele>401.6</ele></trkpt>
      <trkpt lat="42.240866" lon="23.945107"><ele>400.4</ele></trkpt>
      <trkpt lat="42.240494" lon="23.945332"><ele>398.7</ele></trkpt>
      <trkpt lat="42.239653" lon="23.945792"><ele>394.9</ele></trkpt>
      <trkpt lat="42.237903" lon="23.946681"><ele>395.5</ele></trkpt>
      <trkpt lat="42.237599" lon="23.946807"><ele>392.9</ele></trkpt>
      <trkpt lat="42.236859" lon="23.947112"><ele>390.7</ele></trkpt>
      <trkpt lat="42.236155" lon="23.947320"><ele>388.5</ele></trkpt>
      <trkpt lat="42.235654" lon="23.947448"><ele>386.2</ele></trkpt>
      <trkpt lat="42.235302" lon="23.947525"><ele>385.2</ele></trkpt>
      <trkpt lat="42.235197" lon="23.947555"><ele>385.2</ele></trkpt>
      <trkpt lat="42.233986" lon="23.947930"><ele>381.9</ele></trkpt>
      <trkpt lat="42.233619" lon="23.948111"><ele>384.4</ele></trkpt>
      <trkpt lat="42.233306" lon="23.948356"><ele>384.1</ele></trkpt>
      <trkpt lat="42.233001" lon="23.948623"><ele>384.4</ele></trkpt>
      <trkpt lat="42.232656" lon="23.949004"><ele>384.4</ele></trkpt>
      <trkpt lat="42.232381" lon="23.949393"><ele>382.8</ele></trkpt>
      <trkpt lat="42.232100" lon="23.949872"><ele>382.4</ele></trkpt>
      <trkpt lat="42.231817" lon="23.950529"><ele>381.8</ele></trkpt>
      <trkpt lat="42.231603" lon="23.951242"><ele>382.8</ele></trkpt>
      <trkpt lat="42.231399" lon="23.952822"><ele>381.9</ele></trkpt>
      <trkpt lat="42.230878" lon="23.957671"><ele>375.5</ele></trkpt>
      <trkpt lat="42.230608" lon="23.960233"><ele>371.8</ele></trkpt>
      <trkpt lat="42.230557" lon="23.960731"><ele>372.8</ele></trkpt>
      <trkpt lat="42.230533" lon="23.960946"><ele>372.6</ele></trkpt>
      <trkpt lat="42.230367" lon="23.962442"><ele>371.1</ele></trkpt>
      <trkpt lat="42.230273" lon="23.963375"><ele>372.4</ele></trkpt>
      <trkpt lat="42.230193" lon="23.964116"><ele>370.2</ele></trkpt>
      <trkpt lat="42.230130" lon="23.964573"><ele>369.7</ele></trkpt>
      <trkpt lat="42.230052" lon="23.965004"><ele>368.7</ele></trkpt>
      <trkpt lat="42.229947" lon="23.965493"><ele>367.4</ele></trkpt>
      <trkpt lat="42.229828" lon="23.965979"><ele>367.6</ele></trkpt>
      <trkpt lat="42.229660" lon="23.966622"><ele>367.5</ele></trkpt>
      <trkpt lat="42.229316" lon="23.967891"><ele>366.4</ele></trkpt>
      <trkpt lat="42.229111" lon="23.968683"><ele>368.5</ele></trkpt>
      <trkpt lat="42.228967" lon="23.969320"><ele>370.9</ele></trkpt>
      <trkpt lat="42.228870" lon="23.969945"><ele>371.4</ele></trkpt>
      <trkpt lat="42.228756" lon="23.970889"><ele>369.6</ele></trkpt>
      <trkpt lat="42.228694" lon="23.971858"><ele>365.1</ele></trkpt>
      <trkpt lat="42.228670" lon="23.972241"><ele>363.6</ele></trkpt>
      <trkpt lat="42.228583" lon="23.973562"><ele>362.5</ele></trkpt>
      <trkpt lat="42.228567" lon="23.973818"><ele>363.7</ele></trkpt>
      <trkpt lat="42.228533" lon="23.974172"><ele>363.8</ele></trkpt>
      <trkpt lat="42.228485" lon="23.974547"><ele>361.5</ele></trkpt>
      <trkpt lat="42.228406" lon="23.975103"><ele>359.1</ele></trkpt>
      <trkpt lat="42.228267" lon="23.975868"><ele>356.8</ele></trkpt>
      <trkpt lat="42.228072" lon="23.976944"><ele>357.4</ele></trkpt>
      <trkpt lat="42.227748" lon="23.978650"><ele>354.2</ele></trkpt>
      <trkpt lat="42.227111" lon="23.982012"><ele>353.4</ele></trkpt>
      <trkpt lat="42.226912" lon="23.983035"><ele>354.2</ele></trkpt>
      <trkpt lat="42.226876" lon="23.983218"><ele>354.0</ele></trkpt>
      <trkpt lat="42.226687" lon="23.984155"><ele>353.6</ele></trkpt>
      <trkpt lat="42.226643" lon="23.984327"><ele>353.3</ele></trkpt>
      <trkpt lat="42.226594" lon="23.984497"><ele>353.2</ele></trkpt>
      <trkpt lat="42.226538" lon="23.984676"><ele>353.3</ele></trkpt>
      <trkpt lat="42.226476" lon="23.984851"><ele>353.9</ele></trkpt>
      <trkpt lat="42.226410" lon="23.985022"><ele>354.4</ele></trkpt>
      <trkpt lat="42.226339" lon="23.985191"><ele>354.8</ele></trkpt>
      <trkpt lat="42.226108" lon="23.985753"><ele>356.2</ele></trkpt>
      <trkpt lat="42.225692" lon="23.986768"><ele>353.6</ele></trkpt>
      <trkpt lat="42.225415" lon="23.987432"><ele>352.5</ele></trkpt>
      <trkpt lat="42.225186" lon="23.988003"><ele>353.1</ele></trkpt>
      <trkpt lat="42.224890" lon="23.988784"><ele>353.7</ele></trkpt>
      <trkpt lat="42.224596" lon="23.989557"><ele>356.4</ele></trkpt>
      <trkpt lat="42.224340" lon="23.990232"><ele>351.6</ele></trkpt>
      <trkpt lat="42.224192" lon="23.990615"><ele>346.0</ele></trkpt>
      <trkpt lat="42.224051" lon="23.990992"><ele>344.8</ele></trkpt>
      <trkpt lat="42.223909" lon="23.991377"><ele>346.6</ele></trkpt>
      <trkpt lat="42.223614" lon="23.992235"><ele>346.8</ele></trkpt>
      <trkpt lat="42.223440" lon="23.992760"><ele>345.2</ele></trkpt>
      <trkpt lat="42.223125" lon="23.993768"><ele>342.7</ele></trkpt>
      <trkpt lat="42.222745" lon="23.994965"><ele>336.8</ele></trkpt>
      <trkpt lat="42.222497" lon="23.995742"><ele>340.4</ele></trkpt>
      <trkpt lat="42.222419" lon="23.995992"><ele>341.1</ele></trkpt>
      <trkpt lat="42.222210" lon="23.996661"><ele>339.8</ele></trkpt>
      <trkpt lat="42.221905" lon="23.997638"><ele>338.6</ele></trkpt>
      <trkpt lat="42.221403" lon="23.999289"><ele>335.6</ele></trkpt>
      <trkpt lat="42.221323" lon="23.999551"><ele>335.0</ele></trkpt>
      <trkpt lat="42.221241" lon="23.999798"><ele>334.5</ele></trkpt>
      <trkpt lat="42.221145" lon="24.000081"><ele>333.6</ele></trkpt>
      <trkpt lat="42.220986" lon="24.000518"><ele>332.8</ele></trkpt>
      <trkpt lat="42.220759" lon="24.001096"><ele>335.2</ele></trkpt>
      <trkpt lat="42.220427" lon="24.001891"><ele>331.9</ele></trkpt>
      <trkpt lat="42.220262" lon="24.002248"><ele>331.5</ele></trkpt>
      <trkpt lat="42.219952" lon="24.002912"><ele>330.1</ele></trkpt>
      <trkpt lat="42.219457" lon="24.003913"><ele>328.1</ele></trkpt>
      <trkpt lat="42.218818" lon="24.005208"><ele>326.9</ele></trkpt>
      <trkpt lat="42.217974" lon="24.006921"><ele>325.7</ele></trkpt>
      <trkpt lat="42.217836" lon="24.007202"><ele>325.7</ele></trkpt>
      <trkpt lat="42.217733" lon="24.007404"><ele>325.9</ele></trkpt>
      <trkpt lat="42.217592" lon="24.007290"><ele>326.0</ele></trkpt>
      <trkpt lat="42.217503" lon="24.007226"><ele>326.0</ele></trkpt>
      <trkpt lat="42.217415" lon="24.007173"><ele>326.0</ele></trkpt>
      <trkpt lat="42.217323" lon="24.007152"><ele>326.7</ele></trkpt>
      <trkpt lat="42.217144" lon="24.007145"><ele>328.0</ele></trkpt>
      <trkpt lat="42.216958" lon="24.007193"><ele>329.9</ele></trkpt>
      <trkpt lat="42.216802" lon="24.007284"><ele>331.3</ele></trkpt>
      <trkpt lat="42.216761" lon="24.007326"><ele>331.7</ele></trkpt>
      <trkpt lat="42.216719" lon="24.007382"><ele>332.1</ele></trkpt>
      <trkpt lat="42.216665" lon="24.007471"><ele>332.6</ele></trkpt>
      <trkpt lat="42.216618" lon="24.007561"><ele>332.8</ele></trkpt>
      <trkpt lat="42.216552" lon="24.007716"><ele>333.1</ele></trkpt>
      <trkpt lat="42.216509" lon="24.007813"><ele>333.6</ele></trkpt>
      <trkpt lat="42.216470" lon="24.007915"><ele>334.4</ele></trkpt>
      <trkpt lat="42.216441" lon="24.008003"><ele>335.1</ele></trkpt>
      <trkpt lat="42.216415" lon="24.008098"><ele>335.7</ele></trkpt>
      <trkpt lat="42.216409" lon="24.008183"><ele>335.1</ele></trkpt>
      <trkpt lat="42.216415" lon="24.008245"><ele>334.7</ele></trkpt>
      <trkpt lat="42.216428" lon="24.008305"><ele>334.3</ele></trkpt>
      <trkpt lat="42.216445" lon="24.008354"><ele>334.0</ele></trkpt>
      <trkpt lat="42.216471" lon="24.008399"><ele>333.6</ele></trkpt>
      <trkpt lat="42.216505" lon="24.008448"><ele>333.1</ele></trkpt>
      <trkpt lat="42.216549" lon="24.008492"><ele>332.3</ele></trkpt>
      <trkpt lat="42.216589" lon="24.008526"><ele>331.7</ele></trkpt>
      <trkpt lat="42.216755" lon="24.008641"><ele>329.4</ele></trkpt>
      <trkpt lat="42.217703" lon="24.009243"><ele>325.1</ele></trkpt>
      <trkpt lat="42.218145" lon="24.009524"><ele>325.2</ele></trkpt>
      <trkpt lat="42.218193" lon="24.009570"><ele>325.5</ele></trkpt>
      <trkpt lat="42.218229" lon="24.009625"><ele>325.8</ele></trkpt>
      <trkpt lat="42.218255" lon="24.009702"><ele>326.2</ele></trkpt>
      <trkpt lat="42.218259" lon="24.009759"><ele>326.5</ele></trkpt>
      <trkpt lat="42.218267" lon="24.009949"><ele>327.3</ele></trkpt>
      <trkpt lat="42.218270" lon="24.010176"><ele>328.3</ele></trkpt>
      <trkpt lat="42.218273" lon="24.010303"><ele>328.8</ele></trkpt>
      <trkpt lat="42.218267" lon="24.010409"><ele>329.2</ele></trkpt>
      <trkpt lat="42.218259" lon="24.010518"><ele>329.6</ele></trkpt>
      <trkpt lat="42.218258" lon="24.010601"><ele>329.9</ele></trkpt>
      <trkpt lat="42.218274" lon="24.010717"><ele>330.6</ele></trkpt>
      <trkpt lat="42.218295" lon="24.010810"><ele>331.2</ele></trkpt>
      <trkpt lat="42.218317" lon="24.010902"><ele>331.8</ele></trkpt>
      <trkpt lat="42.218406" lon="24.011202"><ele>333.4</ele></trkpt>
      <trkpt lat="42.218801" lon="24.012244"><ele>333.3</ele></trkpt>
      <trkpt lat="42.219121" lon="24.012812"><ele>336.6</ele></trkpt>
      <trkpt lat="42.219325" lon="24.013065"><ele>341.2</ele></trkpt>
      <trkpt lat="42.219508" lon="24.013099"><ele>345.6</ele></trkpt>
      <trkpt lat="42.219596" lon="24.013009"><ele>348.2</ele></trkpt>
      <trkpt lat="42.219616" lon="24.012733"><ele>349.1</ele></trkpt>
      <trkpt lat="42.219517" lon="24.012542"><ele>349.2</ele></trkpt>
      <trkpt lat="42.219383" lon="24.012396"><ele>348.9</ele></trkpt>
      <trkpt lat="42.219208" lon="24.012252"><ele>347.8</ele></trkpt>
      <trkpt lat="42.219145" lon="24.012101"><ele>347.0</ele></trkpt>
      <trkpt lat="42.219129" lon="24.011882"><ele>345.9</ele></trkpt>
      <trkpt lat="42.219162" lon="24.011629"><ele>346.2</ele></trkpt>
      <trkpt lat="42.219349" lon="24.011314"><ele>349.9</ele></trkpt>
      <trkpt lat="42.219487" lon="24.011022"><ele>354.0</ele></trkpt>
      <trkpt lat="42.219528" lon="24.010764"><ele>356.0</ele></trkpt>
      <trkpt lat="42.219487" lon="24.010404"><ele>356.5</ele></trkpt>
      <trkpt lat="42.219462" lon="24.010185"><ele>356.0</ele></trkpt>
      <trkpt lat="42.219491" lon="24.009944"><ele>355.5</ele></trkpt>
      <trkpt lat="42.219595" lon="24.009882"><ele>355.5</ele></trkpt>
      <trkpt lat="42.219720" lon="24.009905"><ele>356.7</ele></trkpt>
      <trkpt lat="42.219848" lon="24.010034"><ele>358.6</ele></trkpt>
      <trkpt lat="42.219998" lon="24.010404"><ele>363.3</ele></trkpt>
      <trkpt lat="42.220136" lon="24.010668"><ele>364.9</ele></trkpt>
      <trkpt lat="42.220260" lon="24.010916"><ele>366.2</ele></trkpt>
      <trkpt lat="42.220323" lon="24.011219"><ele>368.7</ele></trkpt>
      <trkpt lat="42.220323" lon="24.011578"><ele>372.8</ele></trkpt>
      <trkpt lat="42.220385" lon="24.012016"><ele>376.7</ele></trkpt>
      <trkpt lat="42.220497" lon="24.012387"><ele>379.4</ele></trkpt>
      <trkpt lat="42.220647" lon="24.012668"><ele>380.8</ele></trkpt>
      <trkpt lat="42.220893" lon="24.012865"><ele>380.9</ele></trkpt>
      <trkpt lat="42.222203" lon="24.013769"><ele>397.8</ele></trkpt>
      <trkpt lat="42.222802" lon="24.014213"><ele>404.4</ele></trkpt>
      <trkpt lat="42.223105" lon="24.014612"><ele>410.0</ele></trkpt>
      <trkpt lat="42.223234" lon="24.014909"><ele>410.1</ele></trkpt>
      <trkpt lat="42.223276" lon="24.015235"><ele>408.7</ele></trkpt>
      <trkpt lat="42.223264" lon="24.015886"><ele>412.0</ele></trkpt>
      <trkpt lat="42.223309" lon="24.016207"><ele>414.6</ele></trkpt>
      <trkpt lat="42.223501" lon="24.016903"><ele>418.1</ele></trkpt>
      <trkpt lat="42.223713" lon="24.018431"><ele>422.5</ele></trkpt>
      <trkpt lat="42.223803" lon="24.019159"><ele>423.6</ele></trkpt>
      <trkpt lat="42.224240" lon="24.019095"><ele>423.1</ele></trkpt>
      <trkpt lat="42.224448" lon="24.019175"><ele>423.2</ele></trkpt>
    </trkseg>
  </trk>
</gpx>
